TDRS 3                  
1 19548U 88091B   26257.10758671 -.00000305  00000+0  00000+0 0  9997
2 19548  12.5360 340.4067 0038483 352.4346  10.1683  1.00274895126287
FLTSATCOM 8 (USA 46)    
1 20253U 89077A   26256.67334758 -.00000374  00000+0  00000+0 0  9990
2 20253  12.3981 350.6179 0002412 207.7059 162.5299  1.00273992261453
TDRS 5                  
1 21639U 91054B   26256.42805615  .00000077  00000+0  00000+0 0  9994
2 21639  14.0610 353.1160 0009247 251.8764  94.0875  1.00280075128590
TDRS 6                  
1 22314U 93003B   26257.08274485 -.00000302  00000+0  00000+0 0  9991
2 22314  14.1858 356.3864 0009627 199.7917 140.8839  1.00275295123294
UFO 2 (USA 95)          
1 22787U 93056A   26257.00586551  .00000118  00000+0  00000+0 0  9999
2 22787  11.9265   3.0474 0002284 243.9725 136.7523  1.00270145119444
UFO 4 (USA 108)         
1 23467U 95003A   26257.11032358 -.00000028  00000+0  00000+0 0  9993
2 23467   9.6982  12.7829 0003100 157.5694  34.8597  1.00269018115840
TDRS 7                  
1 23613U 95035B   26256.70253163 -.00000248  00000+0  00000+0 0  9998
2 23613  13.3011 347.5707 0011180  99.0854 248.2000  1.00273729114132
USA 115 (MILSTAR-1 2)   
1 23712U 95060A   26257.13309256 -.00000209  00000+0  00000+0 0  9996
2 23712  14.1047   3.0739 0006006 153.8866 154.0798  1.00271392 33774
INMARSAT 3-F1           
1 23839U 96020A   26256.66122523 -.00000061  00000+0  00000+0 0  9996
2 23839  10.7823  45.7909 0006881 149.7373 209.3428  1.00002674111134
INMARSAT 3-F2           
1 24307U 96053A   26257.01628983  .00000087  00000+0  00000+0 0  9991
2 24307  10.0534  53.0067 0005743 118.1800 245.4243  0.99977651109816
INMARSAT 3-F3           
1 24674U 96070A   26256.88114324 -.00000295  00000+0  00000+0 0  9992
2 24674  10.5064  48.7724 0005883 150.6563  64.7441  0.99992985108794
USA 134                 
1 25019U 97065A   26257.12357102 -.00000070  00000+0  00000+0 0  9993
2 25019  12.8897  21.0381 0002617 273.5523 350.8303  1.00270138 33844
INMARSAT 3-F5           
1 25153U 98006B   26257.07794905 -.00000298  00000+0  00000+0 0  9990
2 25153   9.8878  52.3462 0004370 118.6640 156.1288  1.00274917104782
ABS-6                   
1 25924U 99053A   26257.04141946 -.00000129  00000+0  00000+0 0  9990
2 25924   0.0252 240.6014 0001742 251.3508  34.9890  1.00272636 98735
UFO 10 (USA 146)        
1 25967U 99063A   26257.14291037 -.00000195  00000+0  00000+0 0  9999
2 25967   9.9178  26.7229 0004374 192.3189 162.6176  1.00268744 98237
ASIASTAR                
1 26107U 00016A   26256.88314925 -.00000340  00000+0  00000+0 0  9990
2 26107   9.3325  57.1788 0003935 120.0146 238.5803  1.00268896 96802
USA 149 (DSP 20)        
1 26356U 00024A   26256.67586093 -.00000321  00000+0  00000+0 0  9998
2 26356  13.2646  11.2803 0012070  39.3170 323.7247  0.99198402 33819
TDRS 8                  
1 26388U 00034A   26256.86275207 -.00000202  00000+0  00000+0 0  9995
2 26388  12.8219  30.5508 0001458 105.8989 251.8264  1.00271104 96066
NSS-11                  
1 26554U 00059A   26256.89718932  .00000016  00000+0  00000+0 0  9999
2 26554   2.3496  80.2375 0002873  95.9254 315.7136  1.00272942 42185
USA 153                 
1 26575U 00065A   26256.74640793 -.00000332  00000+0  00000+0 0  9994
2 26575  11.7762  34.6627 0001537 133.3448 227.8923  1.00269798 33822
AMC-6                   
1 26580U 00067A   26257.04948330  .00000079  00000+0  00000+0 0  9991
2 26580   0.3745  83.6692 0004201  97.8877  54.2536  1.00273349 94781
USA 157 (MILSTAR-2 2)   
1 26715U 01009A   26256.98794647  .00000102  00000+0  00000+0 0  9997
2 26715  11.6408  19.1929 0042490 180.4437 359.0267  1.00277605 33837
INTELSAT 902 (IS-902)   
1 26900U 01039A   26256.98615484 -.00000291  00000+0  00000+0 0  9997
2 26900   6.3350  70.6573 0004035 103.6885 123.5301  1.00271776 91586
USA 164 (MILSTAR-2 3)   
1 27168U 02001A   26256.99790233  .00000090  00000+0  00000+0 0  9997
2 27168  11.2867  21.3478 0098688  10.2951 339.5665  1.00268653 33849
INTELSAT 904 (IS-904)   
1 27380U 02007A   26256.28587743 -.00000234  00000+0  00000+0 0  9992
2 27380   7.1349  68.0903 0002967 105.8583 249.7595  1.00270561 52646
DIRECTV 5 (TEMPO 1)     
1 27426U 02023A   26257.18543757 -.00000065  00000+0  00000+0 0  9990
2 27426   5.0994  74.1563 0003226 108.4719 127.2116  1.00272911 89010
INTELSAT 905 (IS-905)   
1 27438U 02027A   26257.22014443  .00000086  00000+0  00000+0 0  9999
2 27438   6.9716  68.6888 0003114 131.5705  95.0039  1.00272670 52255
GALAXY 3C (G-3C)        
1 27445U 02030A   26257.18995714 -.00000160  00000+0  00000+0 0  9999
2 27445   3.9649  76.8425 0001567  40.7396 209.1272  1.00272010 47383
INTELSAT 906 (IS-906)   
1 27513U 02041A   26257.08891682  .00000005  00000+0  00000+0 0  9992
2 27513   6.0219  71.7847 0002929 117.4559 260.0096  1.00273080 87926
NIMIQ 2                 
1 27632U 02062A   26257.15013575 -.00000076  00000+0  00000+0 0  9991
2 27632   9.6477  55.9288 0005708 112.5247 129.5100  1.00272060 45076
USA 167                 
1 27691U 03008A   26256.98073634 -.00000002  00000+0  00000+0 0  9998
2 27691  11.1346  42.5871 0003077 289.8178 251.5480  1.00273729  7665
USA 169 (MILSTAR-2 4)   
1 27711U 03012A   26256.67863428 -.00000203  00000+0  00000+0 0  9993
2 27711  12.4692  28.2463 0096854  12.1759 348.7996  1.00271821 33842
ASIASAT 4               
1 27718U 03014A   26256.92143059 -.00000230  00000+0  00000+0 0  9991
2 27718   4.9245  74.5842 0002735 104.3906 293.2127  1.00270834 46192
HELLAS-SAT 2            
1 27811U 03020A   26256.78904812 -.00000091  00000+0  00000+0 0  9993
2 27811   7.5694  66.7896 0007494 137.9741  62.1081  1.00272351 43736
THURAYA-2               
1 27825U 03026A   26257.01360315  .00000117  00000+0  00000+0 0  9993
2 27825   8.9754  31.5277 0000603  63.3828 307.0062  1.00273364 85246
OPTUS C1                
1 27831U 03028B   26256.82189494 -.00000159  00000+0  00000+0 0  9994
2 27831   7.1061  68.2989 0005436 101.2273 274.9200  1.00273059 53957
USA 170                 
1 27875U 03040A   26257.08094344  .00000118  00000+0  00000+0 0  9998
2 27875  10.6854  47.0798 0001488 157.6784 201.5625  1.00270724 33885
GALAXY 13 (HORIZONS-1)  
1 27954U 03044A   26257.17493347  .00000124  00000+0  00000+0 0  9993
2 27954   1.6424  82.5935 0001969  97.0627  86.5043  1.00274640 47465
YAMAL 202               
1 28089U 03053A   26257.17991721 -.00000087  00000+0  00000+0 0  9991
2 28089   6.5607  69.8208 0004398 115.5423  36.1315  1.00271446 83590
UFO 11 (USA 174)        
1 28117U 03057A   26256.91483708 -.00000110  00000+0  00000+0 0  9996
2 28117   9.0242  33.3427 0003821 154.7489 209.5867  1.00271509 83342
USA 176 (DSP 22)        
1 28158U 04004A   26253.21719411 -.00000311  00000+0  00000+0 0  9990
2 28158  12.1809  25.4291 0013798 215.9731 135.7215  1.00059999 33783
ABS-4 (MOBISAT-1)       
1 28184U 04007A   26257.08822346  .00000031  00000+0  00000+0 0  9991
2 28184   6.2599  70.8834 0005260 109.2114 265.7460  1.00274506 53235
INTELSAT 10-02          
1 28358U 04022A   26257.14724374 -.00000020  00000+0  00000+0 0  9999
2 28358   0.0418 260.8825 0000118  55.3638  88.8904  1.00272480 81440
ANIK F2                 
1 28378U 04027A   26257.18528029 -.00000058  00000+0  00000+0 0  9990
2 28378   3.5116  78.2631 0003037  80.2472 150.2563  1.00272358 42151
AMC-15                  
1 28446U 04041A   26256.34101779 -.00000102  00000+0  00000+0 0  9998
2 28446   0.0443 321.2927 0002124 198.9464 209.8083  1.00284145 80185
NSS-10                  
1 28526U 05003A   26256.85489579 -.00000259  00000+0  00000+0 0  9992
2 28526   6.6675  69.3419 0002917 104.8172  89.0055  1.00271698 54043
INMARSAT 4-F1           
1 28628U 05009A   26256.66608981  .00000024  00000+0  00000+0 0  9999
2 28628   5.2918  42.8153 0002566 134.2334 233.5216  1.00272500 78560
DIRECTV 8               
1 28659U 05019A   26257.18336295 -.00000008  00000+0  00000+0 0  9991
2 28659   0.0166 162.6705 0002929  12.8344 124.6187  1.00272420 77962
GALAXY 28 (G-28)        
1 28702U 05022A   26257.14213036 -.00000208  00000+0  00000+0 0  9999
2 28702   3.5212  77.7734 0001892 105.8662 193.5746  1.00271821 52865
THAICOM 4               
1 28786U 05028A   26257.06364280 -.00000371  00000+0  00000+0 0  9997
2 28786   0.4694  84.6152 0000535  47.2465   3.5857  1.00270434 53145
ANIK F1R                
1 28868U 05036A   26257.16805700 -.00000083  00000+0  00000+0 0  9995
2 28868   4.5350  75.4243 0002797  57.0742 173.8574  1.00272474 47346
SYRACUSE 3A             
1 28885U 05041B   26254.51939881  .00000114  00000+0  00000+0 0  9998
2 28885   4.8548  74.7263 0002457 106.5771  42.9291  1.00275934 76614
INMARSAT 4-F2           
1 28899U 05044A   26256.74822794 -.00000268  00000+0  00000+0 0  9998
2 28899   5.2104  43.7243 0002303 130.4252 231.4557  1.00272424 76415
METEOSAT-9 (MSG-2)      
1 28912U 05049B   26257.08519013  .00000117  00000+0  00000+0 0  9996
2 28912   9.5591  53.2637 0001959 349.0565  27.1231  1.00274807  7894
EUTELSAT 174A           
1 28924U 05052A   26257.11067023  .00000001  00000+0  00000+0 0  9998
2 28924   4.4382  75.3782 0005936  96.3729  35.1633  1.00273186 53220
ECHOSTAR 10             
1 28935U 06003A   26257.18566338 -.00000064  00000+0  00000+0 0  9997
2 28935   0.0538 315.2173 0002067 174.7536 179.8525  1.00272138 75356
SPAINSAT                
1 28945U 06007A   26257.10311647 -.00000226  00000+0  00000+0 0  9995
2 28945   0.7871  84.9419 0004778  90.7874 184.2803  1.00272988 75105
JCSAT-5A                
1 29045U 06010A   26256.95976293 -.00000336  00000+0  00000+0 0  9999
2 29045   1.3317  83.0369 0001786  40.6247 346.8545  1.00273605 74663
ASTRA 1KR               
1 29055U 06012A   26257.15123042  .00000110  00000+0  00000+0 0  9990
2 29055   0.6978  82.6931 0003453  91.5977 252.2879  1.00273880 46582
GALAXY 16 (G-16)        
1 29236U 06023A   26256.62266809 -.00000137  00000+0  00000+0 0  9993
2 29236   0.0144 155.4225 0002605  15.8038 306.5473  1.00271895 73860
EUTELSAT 33F            
1 29270U 06032A   26257.15400376  .00000147  00000+0  00000+0 0  9999
2 29270   1.8854  81.1254 0003321  91.3772 269.1918  1.00275311 48195
JCSAT-3A                
1 29272U 06033A   26257.03024323 -.00000354  00000+0  00000+0 0  9994
2 29272   0.0442 278.0540 0002271 256.4995 317.3483  1.00271616 48636
KOREASAT 5 (MUGUNGWHA 5)
1 29349U 06034A   26257.02729654 -.00000367  00000+0  00000+0 0  9992
2 29349   2.0078  81.7452 0001743 139.6395 254.5205  1.00272812 42219
DIRECTV 9S              
1 29494U 06043A   26257.17631711  .00000039  00000+0  00000+0 0  9990
2 29494   2.6459  79.7347 0006166 195.3687 356.6570  0.99095372 52273
OPTUS D1                
1 29495U 06043B   26256.96374961 -.00000192  00000+0  00000+0 0  9999
2 29495   3.2573  78.4910 0003552  91.2812 322.0977  1.00270754 73015
BADR-4                  
1 29526U 06051A   26257.15426376  .00000147  00000+0  00000+0 0  9992
2 29526   2.2285  80.0353 0004827  91.4038 271.7159  1.00270718 52162
WILDBLUE-1              
1 29643U 06054A   26257.15582376  .00000060  00000+0  00000+0 0  9992
2 29643   3.0273  79.3117 0004762  93.0668 279.0816  0.99175057 54689
SKYNET 5A               
1 30794U 07007B   26257.02374318 -.00000279  00000+0  00000+0 0  9994
2 30794   5.5203  72.6105 0003422 107.8886 276.2890  1.00273130 71593
ANIK F3                 
1 31102U 07009A   26257.18336329 -.00000010  00000+0  00000+0 0  9990
2 31102   1.4217  82.6454 0002590  88.6540 129.1750  1.00272988 47452
ASTRA 1L                
1 31306U 07016A   26257.14265036 -.00000193  00000+0  00000+0 0  9998
2 31306   1.5453  80.6821 0004860  91.1465 208.1676  1.00271758 45877
GALAXY 17 (G-17)        
1 31307U 07016B   26256.98353375 -.00000215  00000+0  00000+0 0  9999
2 31307   3.1900  78.7161 0003058 121.2517  62.0733  1.00271848 70698
INTELSAT 11 (IS-11)     
1 32253U 07044B   26257.02365653 -.00000055  00000+0  00000+0 0  9991
2 32253   3.7906  77.5235 0007340 127.7123 251.3065  0.99047080 69338
WGS F1 (USA 195)        
1 32258U 07046A   26256.96711659 -.00000277  00000+0  00000+0 0  9997
2 32258   0.0121 128.0678 0000568  48.0609 122.4680  1.00272253 53221
SKYNET 5B               
1 32294U 07056B   26257.15244375  .00000132  00000+0  00000+0 0  9995
2 32294   5.4711  72.3933 0003692 103.6814 257.0513  1.00269713 69085
ASTRA 4A                
1 32299U 07057A   26257.14845706  .00000024  00000+0  00000+0 0  9995
2 32299   0.0405 312.3642 0002367 223.6170 235.4079  1.00273341 52532
HORIZONS-2              
1 32388U 07063B   26257.13737947 -.00000262  00000+0  00000+0 0  9992
2 32388   2.8253  79.4578 0001357  92.9590 156.3775  1.00272694 68702
THURAYA-3               
1 32404U 08001A   26257.01750316  .00000001  00000+0  00000+0 0  9996
2 32404   6.1392  35.8290 0002366 165.7951 221.4086  1.00273923 68389
THOR 5                  
1 32487U 08006A   26257.14733041 -.00000018  00000+0  00000+0 0  9991
2 32487   0.0379 245.0053 0002293 286.1068 234.3086  1.00272784 68204
AMC-14                  
1 32708U 08011A   26256.74207457 -.00000368  00000+0  00000+0 0  9993
2 32708  24.1118  19.4490 0035193   2.2615 350.0809  1.00439296 69052
DIRECTV 11              
1 32729U 08013A   26257.18842833 -.00000135  00000+0  00000+0 0  9992
2 32729   0.0168 346.2412 0000244  81.2263 254.3538  1.00272163 46488
ICO G1                  
1 32763U 08016A   26257.19003675 -.00000179  00000+0  00000+0 0  9995
2 32763   5.5440  35.8534 0002283 126.2234 166.6660  1.00268931 67435
VINASAT-1               
1 32767U 08018A   26256.95976293 -.00000338  00000+0  00000+0 0  9996
2 32767   0.0295 286.6597 0001846 262.1374 281.6114  1.00272045 67489
STAR ONE C2             
1 32768U 08018B   26257.13459034 -.00000285  00000+0  00000+0 0  9998
2 32768   1.4614  81.4540 0002513  99.8207 155.3127  1.00271488 67549
AMOS-3                  
1 32794U 08022A   26257.07336449 -.00000125  00000+0  00000+0 0  9992
2 32794   0.6783  84.7500 0002169  45.7097 327.0107  1.00272888 83237
GALAXY 18 (G-18)        
1 32951U 08024A   26257.18243910  .00000016  00000+0  00000+0 0  9999
2 32951   0.0171 162.0558 0003011  17.6021 116.1864  1.00272640 46740
ZHONGXING-9             
1 33051U 08028A   26257.09446350 -.00000258  00000+0  00000+0 0  9997
2 33051   0.9899  84.0397 0005453 112.0515 283.3749  1.00273240 66931
SKYNET 5C               
1 33055U 08030A   26257.14395037 -.00000148  00000+0  00000+0 0  9993
2 33055   4.0109  75.9230 0004806 107.3011 203.9464  1.00271751 66845
TURKSAT 3A              
1 33056U 08030B   26257.15573711  .00000137  00000+0  00000+0 0  9999
2 33056   0.0526  82.5346 0004442  75.0850 293.5744  1.00273766 53249
ECHOSTAR 11             
1 33207U 08035A   26257.18558698 -.00000067  00000+0  00000+0 0  9995
2 33207   1.2292  82.9942 0002590 109.4322 117.7559  1.00272538 52105
SUPERBIRD-C2            
1 33274U 08038A   26256.96054293 -.00000315  00000+0  00000+0 0  9995
2 33274   2.5840  80.0779 0005785  67.2440 327.4439  1.00272897106622
INMARSAT 4-F3           
1 33278U 08039A   26257.18903446 -.00000148  00000+0  00000+0 0  9992
2 33278   4.3788  31.7495 0002963 163.7717 127.7300  1.00272424 47436
NIMIQ 4                 
1 33373U 08044A   26257.13496553 -.00000229  00000+0  00000+0 0  9995
2 33373   0.0232 115.5917 0001930  55.4653 148.6756  1.00271406 65872
GALAXY 19 (G-19)        
1 33376U 08045A   26256.62932073 -.00000150  00000+0  00000+0 0  9997
2 33376   0.0333 243.2420 0002431 286.7983 312.1364  1.00272223 65799
ASTRA 1M                
1 33436U 08057A   26257.15131707  .00000112  00000+0  00000+0 0  9998
2 33436   0.5201  82.6396 0003670  88.8133 255.5365  1.00272221 46626
EUTELSAT HOTBIRD 13C    
1 33459U 08065A   26257.06621002 -.00000291  00000+0  00000+0 0  9993
2 33459   3.1730  78.0669 0003572 101.3690 147.1579  1.00270570 48236
EXPRESS-AM44            
1 33595U 09007A   26257.14533706 -.00000097  00000+0  00000+0 0  9997
2 33595   3.6862  77.2500 0003567  96.3111 220.8967  1.00272055 53177
NSS-9                   
1 33749U 09008A   26257.11240359  .00000063  00000+0  00000+0 0  9997
2 33749   1.4853  81.6171 0002130  79.1167  55.8988  1.00271261 64418
TELSTAR 11N             
1 34111U 09009A   26257.14005036 -.00000260  00000+0  00000+0 0  9996
2 34111   0.0283 253.1940 0002459 274.4894 198.3135  1.00272322 47131
WGS F2 (USA 204)        
1 34713U 09017A   26256.80248152  .00000000  00000+0  00000+0 0  9994
2 34713   0.0203 154.4608 0000368 340.4734 204.2623  1.00271116 46508
SES-7 (PROTOSTAR 2)     
1 34941U 09027A   26256.98993193 -.00000354  00000+0  00000+0 0  9992
2 34941   0.0428  77.7871 0001493 147.9367 231.8767  1.00270214 63525
MEASAT-3A               
1 35362U 09032A   26257.04141946  .00000000  00000+0  00000+0 0  9992
2 35362   0.0027 307.1624 0001921 232.6673 348.1120  1.00269619  8927
EWS-G3 (GOES 14)        
1 35491U 09033A   26257.07336449 -.00000135  00000+0  00000+0 0  9993
2 35491   1.9134  81.7897 0002126  89.3042 292.0665  1.00071519  7482
FM-5                    
1 35493U 09034A   26257.13392019 -.00000209  00000+0  00000+0 0  9990
2 35493   0.0439 268.0711 0000889 151.2433 255.8709  1.00272884 47538
TERRESTAR-1             
1 35496U 09035A   26256.98290301 -.00000064  00000+0  00000+0 0  9996
2 35496   5.2270  48.6642 0002417 105.7726  81.3981  1.00271703 63029
ASIASAT 5               
1 35696U 09042A   26257.05669690 -.00000317  00000+0  00000+0 0  9997
2 35696   0.0056 179.1063 0001797 340.3400 314.5147  1.00273959 62613
JCSAT-12 (JCSAT-RA)     
1 35755U 09044A   26256.95976293 -.00000337  00000+0  00000+0 0  9995
2 35755   0.0488 276.2496 0001663 301.9663 252.3131  1.00273064 62500
OPTUS D3                
1 35756U 09044B   26257.04141946 -.00000155  00000+0  00000+0 0  9994
2 35756   0.8211 267.9836 0004146 264.4401 351.6473  1.00273101 62458
NIMIQ 5                 
1 35873U 09050A   26257.10451036 -.00000266  00000+0  00000+0 0  9995
2 35873   0.0257 249.3431 0002695 280.9036 147.7688  1.00272286 62230
AMAZONAS 2              
1 35942U 09054A   26257.14514029 -.00000268  00000+0  00000+0 0  9994
2 35942   2.0392  81.8033 0003281  84.0650 167.5049  1.00273561 62073
COMSATBW-1              
1 35943U 09054B   26257.15998380  .00000016  00000+0  00000+0 0  9992
2 35943   0.0233 180.4396 0002941 358.5963 294.7122  1.00270424 62207
NSS-12                  
1 36032U 09058A   26257.15877045  .00000062  00000+0  00000+0 0  9991
2 36032   0.0201 116.2903 0003264  16.4663 334.5466  1.00273047 61813
THOR 6                  
1 36033U 09058B   26257.14733041 -.00000019  00000+0  00000+0 0  9991
2 36033   0.0100 147.1704 0001742  28.1617 230.0010  1.00272519 61898
INTELSAT 14 (IS-14)     
1 36097U 09064A   26257.06725005 -.00000283  00000+0  00000+0 0  9993
2 36097   0.1388  84.6487 0002377  85.6851 161.9360  1.00271739 61492
EUTELSAT 36B            
1 36101U 09065A   26257.15747044  .00000104  00000+0  00000+0 0  9998
2 36101   0.7097  81.1630 0005723  88.7882 290.3734  1.00270648 61602
INTELSAT 15 (IS-15)     
1 36106U 09067A   26257.07336449  .00000000  00000+0  00000+0 0  9994
2 36106   0.0176 154.5005 0002333  23.1038 287.0035  1.00269580 42125
WGS F3 (USA 211)        
1 36108U 09068A   26257.18243867  .00000012  00000+0  00000+0 0  9993
2 36108   0.3136  85.1272 0000388  39.0045 172.4119  1.00272934 47484
DIRECTV 12              
1 36131U 09075A   26257.18750086 -.00000112  00000+0  00000+0 0  9995
2 36131   0.0365   8.1819 0000470  98.1415 211.6249  1.00272164 47443
BEIDOU-2 G1             
1 36287U 10001A   26257.17532387 -.00000288  00000+0  00000+0 0  9993
2 36287   4.4989  60.0333 0002121 250.1687 246.5080  1.00268704 61068
SDO                     
1 36395U 10005A   26256.49629838 -.00000070  00000+0  00000+0 0  9998
2 36395  34.8336  84.9977 0001657  73.0726 271.4630  1.00274999 60946
INTELSAT 16 (IS-16)     
1 36397U 10006A   26254.49556537 -.00000293  00000+0  00000+0 0  9991
2 36397   0.0441 282.6390 0007227 158.5111  13.9394  1.00894804 60514
EWS-G2 (GOES 15)        
1 36411U 10008A   26257.15998380  .00000013  00000+0  00000+0 0  9991
2 36411   1.5178  81.8396 0005155  79.9843 312.2210  1.00271895 60538
ECHOSTAR 14             
1 36499U 10010A   26257.18336262 -.00000009  00000+0  00000+0 0  9994
2 36499   0.0333 263.4072 0001959 277.7692 119.0887  1.00273200 47448
SES-1                   
1 36516U 10016A   26257.18796617 -.00000123  00000+0  00000+0 0  9991
2 36516   0.0414 305.7369 0002504 234.2156 139.8975  1.00271100 59928
ASTRA 3B                
1 36581U 10021A   26257.15209708  .00000129  00000+0  00000+0 0  9991
2 36581   1.6921  82.3262 0003672  67.0405 282.0214  1.00272200 59756
COMSATBW-2              
1 36582U 10021B   26257.15010374  .00000080  00000+0  00000+0 0  9997
2 36582   0.0317 116.4302 0002728  77.7858 226.2063  1.00274920 59847
BEIDOU-2 G3             
1 36590U 10024A   26257.09195016 -.00000143  00000+0  00000+0 0  9990
2 36590   4.7228  61.0447 0005024 359.7776  44.9604  1.00273385 59667
BADR-5                  
1 36592U 10025A   26257.15348375  .00000145  00000+0  00000+0 0  9999
2 36592   0.0553 118.0280 0007848  94.8301 226.0259  1.00274032 54107
ARABSAT-5A              
1 36745U 10032B   26257.15348375  .00000145  00000+0  00000+0 0  9997
2 36745   0.2611  76.9344 0004072  90.8216 271.1363  1.00270241 59531
ECHOSTAR 15             
1 36792U 10034A   26257.18336293 -.00000009  00000+0  00000+0 0  9990
2 36792   0.0371 283.6574 0002652 214.2102 162.5101  1.00271139 59219
BEIDOU-2 IGSO-1         
1 36828U 10036A   26233.75814490 -.00000137  00000+0  00000+0 0  9991
2 36828  54.3073 162.3689 0058186 224.3483 321.2966  1.00253816 58750
NILESAT 201             
1 36830U 10037A   26257.14611705 -.00000067  00000+0  00000+0 0  9990
2 36830   0.0179 192.2865 0005574 343.0720 223.3783  1.00271641 59264
RASCOM-QAF 1R           
1 36831U 10037B   26257.14802374  .00000010  00000+0  00000+0 0  9992
2 36831   0.0164 140.8862 0005125  32.3318 236.1028  1.00271610 59190
AEHF-1 (USA 214)        
1 36868U 10039A   26256.85104200  .00000140  00000+0  00000+0 0  9998
2 36868   8.4403  66.8766 0003661  94.3944 167.9874  1.00277695 54547
XM-5                    
1 37185U 10053A   26256.98212301 -.00000033  00000+0  00000+0 0  9995
2 37185   0.0711 271.9682 0000342 224.3160  95.0695  1.00272995 58379
BSAT-3B                 
1 37207U 10056B   26257.05113940 -.00000359  00000+0  00000+0 0  9992
2 37207   0.0618 250.0548 0004109 314.6158 276.6258  1.00271938 52994
BEIDOU-2 G4             
1 37210U 10057A   26257.22635255 -.00000120  00000+0  00000+0 0  9990
2 37210   3.8633  68.3149 0007893 180.1757 346.1901  1.00270815 58185
SKYTERRA 1              
1 37218U 10061A   26257.18811913 -.00000126  00000+0  00000+0 0  9991
2 37218   5.3122  50.6467 0000746 134.6121 134.3560  1.00272159 58089
HYLAS 1                 
1 37237U 10065A   26256.95629624 -.00000361  00000+0  00000+0 0  9997
2 37237   5.8624  71.8852 0003426 157.0890 222.9224  1.00642158  7787
INTELSAT 17 (IS-17)     
1 37238U 10065B   26257.16050380 -.00000011  00000+0  00000+0 0  9991
2 37238   0.0087 150.7298 0002572  28.6559 297.5431  1.00272083 54141
BEIDOU-2 IGSO-2         
1 37256U 10068A   26253.99100328 -.00000181  00000+0  00000+0 0  9997
2 37256  47.3940 270.7552 0057250 216.2433 325.9173  1.00254283 57658
EUTELSAT KA-SAT 9A      
1 37258U 10069A   26257.14923706  .00000053  00000+0  00000+0 0  9991
2 37258   0.0739 352.3642 0005411 178.0902 245.4157  1.00271849 44894
HISPASAT 30W-5          
1 37264U 10070A   26257.14152369 -.00000225  00000+0  00000+0 0  9991
2 37264   0.0413 112.4058 0005582  55.5896 206.0897  1.00271491 54074
KOREASAT 6              
1 37265U 10070B   26257.04141946 -.00000121  00000+0  00000+0 0  9995
2 37265   0.0143 123.8145 0002045  63.1930 340.8154  1.00271705 57662
BEIDOU-2 IGSO-3         
1 37384U 11013A   26254.72041400 -.00000177  00000+0  00000+0 0  9992
2 37384  62.5388  39.3441 0034682 183.6392 132.9930  1.00292639 56525
INTELSAT 28 (IS-28)     
1 37392U 11016A   26257.14117704 -.00000233  00000+0  00000+0 0  9997
2 37392   2.0299  81.4267 0003547  94.8093 196.0335  1.00273442 54175
YAHSAT 1A               
1 37393U 11016B   26257.15790377  .00000092  00000+0  00000+0 0  9994
2 37393   0.0136 152.8039 0001947   4.0661 305.6316  1.00271479 43308
SBIRS GEO-1 (USA 230)   
1 37481U 11019A   26257.08640346  .00000092  00000+0  00000+0 0  9997
2 37481   4.7297  52.9917 0001790 125.3866 257.6150  1.00272407 56296
GSAT-8                  
1 37605U 11022A   26257.15833712  .00000076  00000+0  00000+0 0  9990
2 37605   2.3548  80.6424 0005783 156.8160 227.7788  1.00272502 54110
ST-2                    
1 37606U 11022B   26257.06225439 -.00000220  00000+0  00000+0 0  9994
2 37606   0.0198 112.7548 0002094  96.2834 254.4293  1.00271494 56173
ZHONGXING-10            
1 37677U 11026A   26257.09307684 -.00000197  00000+0  00000+0 0  9995
2 37677   1.2709  83.0205 0002559  65.8794 323.1236  1.00272152 55896
SES-3                   
1 37748U 11035A   26257.18742823 -.00000110  00000+0  00000+0 0  9997
2 37748   1.5506  81.9556 0002314 102.0955 133.6051  1.00272133 55484
KAZSAT-2                
1 37749U 11035B   26257.06225439 -.00000207  00000+0  00000+0 0  9991
2 37749   0.0181  73.7790 0001030 156.8301 231.3683  1.00273227 54293
BEIDOU-2 IGSO-4         
1 37763U 11038A   26253.81888678 -.00000114  00000+0  00000+0 0  9996
2 37763  54.6025 164.9115 0160321 231.0094 343.0930  1.00268280 55503
ASTRA 1N                
1 37775U 11041A   26257.15123042  .00000111  00000+0  00000+0 0  9997
2 37775   0.0727  17.0250 0004889 132.9051 276.8431  1.00274118 45411
BSAT-3C (JCSAT-110R)    
1 37776U 11041B   26257.05113940 -.00000360  00000+0  00000+0 0  9990
2 37776   0.0468 337.0157 0000060 232.2632 272.1191  1.00272720 51361
SES-2                   
1 37809U 11049A   26257.19166074 -.00000205  00000+0  00000+0 0  9994
2 37809   0.2810  87.5768 0002825  83.0554 164.5399  1.00272274 54857
ARABSAT-5C              
1 37810U 11049B   26256.50979891  .00000113  00000+0  00000+0 0  9996
2 37810   0.0603  21.0656 0004041 161.9053  13.0797  1.00274276 54920
EUTELSAT 7 WEST A       
1 37816U 11051A   26257.14603038 -.00000069  00000+0  00000+0 0  9994
2 37816   0.0635 352.6594 0005994 180.9459 224.7758  1.00272143 54765
QUETZSAT 1              
1 37826U 11054A   26257.14232970 -.00000251  00000+0  00000+0 0  9994
2 37826   0.0408 298.8260 0002568 246.4779 142.0629  1.00271624 50760
INTELSAT 18 (IS-18)     
1 37834U 11056A   26257.11179691  .00000044  00000+0  00000+0 0  9991
2 37834   0.0391 263.7637 0001968 270.1913  39.3938  1.00270741 54704
EUTELSAT 16A            
1 37836U 11057A   26257.15062375  .00000095  00000+0  00000+0 0  9994
2 37836   0.0918  62.6207 0005522 108.5589 252.1794  1.00270587  8222
VIASAT-1                
1 37843U 11059A   26257.19164661 -.00000032  00000+0  00000+0 0  9991
2 37843   0.0159 205.2233 0002349 319.2242 142.6196  1.00270997 48219
ASIASAT 7               
1 37933U 11069A   26257.09689019  .00000000  00000+0  00000+0 0  9994
2 37933   0.0185 165.5293 0001498 338.9679 348.9580  1.00267096 45758
BEIDOU-2 IGSO-5         
1 37948U 11073A   26253.79533384 -.00000160  00000+0  00000+0 0  9999
2 37948  47.5267 270.4734 0116651 224.1508 237.2700  1.00279182 53990
LUCH-5A                 
1 37951U 11074B   26256.77222038 -.00000057  00000+0  00000+0 0  9991
2 37951   8.9730  72.4850 0003876 121.1795 244.0394  1.00273073 53940
NIGCOMSAT 1R            
1 38014U 11077A   26257.15591044  .00000136  00000+0  00000+0 0  9991
2 38014   0.0259 133.0553 0002576 199.9392 118.7927  1.00274354 53847
WGS F4 (USA 233)        
1 38070U 12003A   26257.06225439 -.00000224  00000+0  00000+0 0  9994
2 38070   0.0128 145.1105 0000195 197.1434 121.5907  1.00271530 45049
SES-4                   
1 38087U 12007A   26257.14308372 -.00000177  00000+0  00000+0 0  9990
2 38087   0.0149  59.5449 0002552 119.4786 203.6312  1.00272442 53117
BEIDOU-2 G5             
1 38091U 12008A   26257.15911713  .00000050  00000+0  00000+0 0  9995
2 38091   3.7908  69.0550 0006786 240.2554 159.8302  1.00268515 53266
MUOS-1                  
1 38093U 12009A   26256.98506970 -.00000135  00000+0  00000+0 0  9998
2 38093   5.6550  46.9866 0052604   3.9861 196.6756  1.00271557 53331
INTELSAT 22 (IS-22)     
1 38098U 12011A   26257.16171713 -.00000067  00000+0  00000+0 0  9994
2 38098   0.0245 109.1825 0001741  66.7846 307.4919  1.00271871  8083
APSTAR-7                
1 38107U 12013A   26257.16258380 -.00000110  00000+0  00000+0 0  9992
2 38107   0.0238 124.4951 0002515  44.8291 318.8611  1.00271836 52712
YAHSAT 1B               
1 38245U 12016A   26257.15686377  .00000117  00000+0  00000+0 0  9994
2 38245   0.0987  89.1605 0001054  75.1149 292.9528  1.00272117 46507
AEHF-2 (USA 235)        
1 38254U 12019A   26257.14421037 -.00000142  00000+0  00000+0 0  9995
2 38254   6.8513  56.7738 0002608 133.0848 198.7440  1.00271707  7876
JCSAT-13                
1 38331U 12023A   26257.06364280 -.00000365  00000+0  00000+0 0  9990
2 38331   0.0316 259.9506 0002388 258.3829 341.6396  1.00273706 52447
VINASAT-2               
1 38332U 12023B   26256.95976293 -.00000338  00000+0  00000+0 0  9991
2 38332   0.0431 327.9928 0002064 195.1998 307.1205  1.00272580 47557
NIMIQ 6                 
1 38342U 12026A   26257.19073600 -.00000183  00000+0  00000+0 0  9990
2 38342   0.0328 275.3925 0002800 256.6933 158.6574  1.00272365 51314
ZHONGXING-2A            
1 38352U 12028A   26257.09567685 -.00000301  00000+0  00000+0 0  9995
2 38352   1.6784  82.6286 0001007 141.6716 261.5021  1.00271656 52197
INTELSAT 19 (IS-19)     
1 38356U 12030A   26257.10893690  .00000000  00000+0  00000+0 0  9997
2 38356   0.0177 152.7447 0003118  25.9770  19.5859  1.00270803 51346
ECHOSTAR 17             
1 38551U 12035A   26257.18658947 -.00000084  00000+0  00000+0 0  9994
2 38551   0.0203 132.4039 0002180  37.0884 143.7486  1.00272308 51958
METEOSAT-10 (MSG-3)     
1 38552U 12035B   26257.14750374 -.00000014  00000+0  00000+0 0  9991
2 38552   4.8781  60.5208 0000838  99.7518 246.0253  1.00271292 51745
SES-5                   
1 38652U 12036A   26257.14845706  .00000000  00000+0  00000+0 0  9991
2 38652   0.0143  26.0750 0002016 142.6816 242.7930  1.00271323 45343
INTELSAT 20 (IS-20)     
1 38740U 12043A   26257.16102380 -.00000033  00000+0  00000+0 0  9990
2 38740   0.0170 139.0231 0001689  32.0034 308.5899  1.00271724 51649
HYLAS 2                 
1 38741U 12043B   26257.14317037 -.00000132  00000+0  00000+0 0  9996
2 38741   2.6497  79.8889 0003446 156.3075 146.8337  1.00522805 51669
INTELSAT 21 (IS-21)     
1 38749U 12045A   26257.18368132  .00000000  00000+0  00000+0 0  9995
2 38749   0.0198 167.2808 0002480  24.1231 169.8895  1.00269576 51413
ASTRA 2F                
1 38778U 12051A   26257.15305043  .00000141  00000+0  00000+0 0  9999
2 38778   0.0640 256.3837 0004227 308.5693 231.4638  1.00273684 42024
GSAT-10                 
1 38779U 12051B   26257.07336449 -.00000174  00000+0  00000+0 0  9992
2 38779   0.0505 268.9646 0005625 203.3905 350.1134  1.00273381 50981
INTELSAT 23 (IS-23)     
1 38867U 12057A   26257.10526707 -.00000294  00000+0  00000+0 0  9991
2 38867   0.0300 267.5017 0001434 332.3216  98.1687  1.00274419 50841
BEIDOU-2 G6             
1 38953U 12059A   26257.09281683 -.00000183  00000+0  00000+0 0  9995
2 38953   4.6415  72.5123 0006944 324.0795  73.9168  1.00270142 50807
LUCH-5B                 
1 38977U 12061A   26256.71650779 -.00000145  00000+0  00000+0 0  9996
2 38977  10.6715  48.9797 0005952 164.7180  20.6210  1.00269857 50495
YAMAL 300K              
1 38978U 12061B   26257.24918187  .00000062  00000+0  00000+0 0  9993
2 38978   0.0133 207.3333 0000466 157.7366 260.8214  1.00269545 50523
STAR ONE C3             
1 38991U 12062A   26257.13683616 -.00000258  00000+0  00000+0 0  9991
2 38991   0.0206  96.9289 0002103  71.3165 159.1341  1.00269804 50652
EUTELSAT 21B            
1 38992U 12062B   26257.15175043  .00000121  00000+0  00000+0 0  9992
2 38992   0.0692 349.7675 0002970 176.5763 263.0236  1.00270428 50713
ECHOSTAR 16             
1 39008U 12065A   26257.21326895  .00000000  00000+0  00000+0 0  9990
2 39008   0.0208 148.6246 0002090  17.4298 202.4152  1.00269020 50534
ZHONGXING-12            
1 39017U 12067A   26257.09351017 -.00000216  00000+0  00000+0 0  9992
2 39017   0.0357 113.4278 0002605  57.4383 303.3789  1.00271157 50402
EUTELSAT 70B            
1 39020U 12069A   26257.09013014 -.00000053  00000+0  00000+0 0  9999
2 39020   0.0663   5.6494 0003677 169.2866 281.0893  1.00272370 50402
YAMAL 402               
1 39022U 12070A   26257.15833712  .00000077  00000+0  00000+0 0  9990
2 39022   1.4873  82.9053 0003545  86.3263 295.8121  1.00272443 50290
SKYNET 5D               
1 39034U 12075A   26257.15790377  .00000090  00000+0  00000+0 0  9992
2 39034   0.0765   6.3643 0003736 176.1416 280.2101  1.00273482 50057
MEXSAT 3                
1 39035U 12075B   26257.19313602 -.00000035  00000+0  00000+0 0  9999
2 39035   0.0192 149.7515 0001389  83.8429  74.3513  1.00271955  7944
TDRS 11                 
1 39070U 13004A   26257.11292359  .00000071  00000+0  00000+0 0  9997
2 39070   3.6560  32.5545 0003599  43.9233 142.9337  1.00268066 47587
AMAZONAS 3              
1 39078U 13006A   26257.21326882 -.00000291  00000+0  00000+0 0  9992
2 39078   0.0232 201.9665 0005124 353.7853 173.2271  1.00270770 45816
AZERSPACE 1             
1 39079U 13006B   26257.15660377  .00000000  00000+0  00000+0 0  9993
2 39079   0.0184 164.5080 0001583  23.3572 267.6330  1.00273809 49691
SBIRS GEO-2 (USA 241)   
1 39120U 13011A   26257.20839730 -.00000153  00000+0  00000+0 0  9993
2 39120   4.6791  52.4480 0002402 138.5941 140.4043  1.00271114 49428
EUTELSAT 117 WEST A     
1 39122U 13012A   26257.18916711 -.00000022  00000+0  00000+0 0  9993
2 39122   0.0437 318.6306 0002835 216.0066 129.8463  1.00273071 49321
ANIK G1                 
1 39127U 13014A   26257.18659057 -.00000083  00000+0  00000+0 0  9994
2 39127   0.0220 243.6288 0002736 302.2808 127.1337  1.00272286 49142
ZHONGXING-11            
1 39157U 13020A   26257.09559019 -.00000300  00000+0  00000+0 0  9993
2 39157   0.0493 298.9436 0001126 170.4825  15.9833  1.00272677 48790
EUTELSAT 7B             
1 39163U 13022A   26255.65379225  .00000094  00000+0  00000+0 0  9990
2 39163   0.0686 340.7180 0008080 141.3008 120.9716  1.00301361 48823
WGS F5 (USA 243)        
1 39168U 13024A   26257.01306910  .00000000  00000+0  00000+0 0  9997
2 39168   0.0209 165.1140 0000526  24.5993 115.4826  1.00269275 48060
SES-6                   
1 39172U 13026A   26257.13944368 -.00000270  00000+0  00000+0 0  9992
2 39172   0.0525 297.2560 0002405 240.1131 185.4678  1.00271384 48614
IRNSS-1A                
1 39199U 13034A   26253.98563273  .00000076  00000+0  00000+0 0  9994
2 39199  35.9094  62.6436 0019988 178.1079 159.1335  1.00274175 48228
MUOS-2                  
1 39206U 13036A   26257.11023691 -.00000020  00000+0  00000+0 0  9999
2 39206   5.1708  45.5467 0057020 177.5278 341.6824  1.00271880 48080
ALPHASAT                
1 39215U 13038A   26256.72474116  .00000126  00000+0  00000+0 0  9995
2 39215   3.0035   0.7630 0003589 186.7872  90.9393  1.00273609 44901
INSAT-3D                
1 39216U 13038B   26256.95924293 -.00000348  00000+0  00000+0 0  9994
2 39216   2.1490  81.3241 0001283 109.3660 277.1103  1.00272342 47976
WGS F6 (USA 244)        
1 39222U 13041A   26257.19951580  .00000000  00000+0  00000+0 0  9995
2 39222   0.0213 163.7284 0000102 241.9981 244.0607  1.00271683 46959
ES'HAIL 1               
1 39233U 13044A   26257.15253043  .00000134  00000+0  00000+0 0  9993
2 39233   0.0632 346.1042 0002266 180.4468 266.9724  1.00271472 47517
GSAT-7                  
1 39234U 13044B   26257.16215046 -.00000086  00000+0  00000+0 0  9993
2 39234   0.3041  86.9809 0005056 165.1865 233.3617  1.00272055 46152
AMOS-4                  
1 39237U 13045A   26257.16033045 -.00000002  00000+0  00000+0 0  9992
2 39237   0.0419 253.8974 0001165 266.1613 315.8289  1.00272530 47856
AEHF-3 (USA 246)        
1 39256U 13050A   26257.18173455  .00000022  00000+0  00000+0 0  9992
2 39256   5.5084  66.3146 0091997 188.4081  39.6724  1.00269053 46546
ASTRA 2E                
1 39285U 13056A   26257.15313708  .00000141  00000+0  00000+0 0  9996
2 39285   0.0886 306.9812 0002164 225.8816 263.8878  1.00271825 47318
FM-6                    
1 39360U 13058A   26257.18767806 -.00000024  00000+0  00000+0 0  9998
2 39360   0.0249 243.3812 0000386  10.5854  50.3989  1.00271774 46969
RADUGA-1M 3             
1 39375U 13062A   26257.15435044  .00000146  00000+0  00000+0 0  9996
2 39375   6.1825  71.2001 0002220 303.5284  68.9218  1.00272504 47009
SES-8                   
1 39460U 13071A   26257.09498351 -.00000279  00000+0  00000+0 0  9992
2 39460   0.0454 269.0981 0002026 242.7857 330.3938  1.00271506 45322
INMARSAT 5-F1           
1 39476U 13073A   26256.66095420  .00000017  00000+0  00000+0 0  9992
2 39476   0.0196 142.5959 0000399  11.3100 139.3341  1.00272891 46463
TKSAT-1 (TUPAC KATARI)  
1 39481U 13075A   26257.19158588 -.00000204  00000+0  00000+0 0  9993
2 39481   0.0182 344.7818 0002159 169.3644 180.7943  1.00273348 46496
EXPRESS-AM5             
1 39487U 13077A   26256.67620760 -.00000290  00000+0  00000+0 0  9994
2 39487   0.0304 255.1911 0001816 239.9224 241.0124  1.00271764 47240
GSAT-14                 
1 39498U 14001A   26256.93177766 -.00000087  00000+0  00000+0 0  9990
2 39498   0.0294 252.2429 0005092 325.9185 184.1948  1.00272243 46269
THAICOM 6               
1 39500U 14002A   26257.16301713 -.00000130  00000+0  00000+0 0  9991
2 39500   0.0571 110.9533 0003710  41.7764 337.6242  1.00272211 46355
TDRS 12                 
1 39504U 14004A   26257.13935703 -.00000278  00000+0  00000+0 0  9999
2 39504   4.0709  20.4458 0006354 215.5759 126.3429  1.00269905 45163
ABS-2                   
1 39508U 14006A   26257.07336449 -.00000095  00000+0  00000+0 0  9997
2 39508   0.0236 250.2461 0003170 286.2316 277.9111  1.00272115 46161
ATHENA-FIDUS            
1 39509U 14006B   26257.15495711  .00000145  00000+0  00000+0 0  9990
2 39509   0.0250 118.7231 0001530  65.5501 262.4465  1.00272916 45971
TURKSAT 4A              
1 39522U 14007A   26257.15582376  .00000137  00000+0  00000+0 0  9991
2 39522   0.0760 286.9974 0003388 317.7530 206.4795  1.00270309 45856
EXPRESS-AT1             
1 39612U 14010A   26257.09108350 -.00000106  00000+0  00000+0 0  9991
2 39612   0.4813  84.5819 0004845  80.3839 295.9214  1.00315152 45713
EXPRESS-AT2             
1 39613U 14010B   26256.65965419  .00000068  00000+0  00000+0 0  9996
2 39613   0.0127 228.6716 0000729  59.8803 357.5849  1.00274385 45388
AMAZONAS 4A             
1 39616U 14011A   26257.10451035 -.00000262  00000+0  00000+0 0  9992
2 39616   0.0509 179.6214 0006041   3.6963 133.3972  1.00273272 45606
ASTRA 5B                
1 39617U 14011B   26257.15209708  .00000128  00000+0  00000+0 0  9996
2 39617   0.0996 294.7704 0002829 256.1998 240.4153  1.00270426 45556
IRNSS-1B                
1 39635U 14017A   26257.01594316  .00000104  00000+0  00000+0 0  9993
2 39635  28.7737 238.8774 0020276 191.4929 343.4379  1.00270349 45685
LUCH-5V                 
1 39727U 14023A   26257.02365653 -.00000276  00000+0  00000+0 0  9994
2 39727   5.3496  68.7731 0002579 138.5408 248.9546  1.00270425 45256
KAZSAT-3                
1 39728U 14023B   26257.15903045  .00000052  00000+0  00000+0 0  9993
2 39728   0.0166 252.2241 0000074 312.2992 264.3768  1.00270892 43351
EUTELSAT 3B             
1 39773U 14030A   26257.14811041  .00000011  00000+0  00000+0 0  9999
2 39773   0.0666   3.6861 0004106 166.5441 239.3189  1.00273251 44959
ASIASAT 8 (AMOS-7)      
1 40107U 14046A   26257.05669690  .00000000  00000+0  00000+0 0  9998
2 40107   0.0183 176.1334 0001721 336.0623 326.5256  1.00272207103043
ASIASAT 6               
1 40141U 14052A   26256.74354791 -.00000372  00000+0  00000+0 0  9994
2 40141   0.0336 270.4377 0000885 247.0203 222.8661  1.00272680 43968
OPTUS 10                
1 40146U 14054A   26257.04141946 -.00000156  00000+0  00000+0 0  9991
2 40146   0.1239 342.4996 0002022 186.6508 354.8038  1.00271298 43928
MEASAT-3B               
1 40147U 14054B   26257.09420351 -.00000251  00000+0  00000+0 0  9993
2 40147   0.0381  33.4450 0001376  76.9274   8.1525  1.00271811 43819
HIMAWARI-8              
1 40267U 14060A   26257.17523720 -.00000284  00000+0  00000+0 0  9992
2 40267   0.0246  57.5568 0001152 140.2953 359.0712  1.00271648 43656
IRNSS-1C                
1 40269U 14061A   26257.07336449 -.00000169  00000+0  00000+0 0  9996
2 40269   6.7382  87.2178 0020086  10.0121   5.2986  1.00270997 43588
INTELSAT 30 (IS-30)     
1 40271U 14062A   26257.05737000  .00000000  00000+0  00000+0 0  9999
2 40271   0.0165 131.9790 0001751 280.3298 226.3419  1.00270402  7688
ARSAT 1                 
1 40272U 14062B   26257.14187965 -.00000269  00000+0  00000+0 0  9997
2 40272   0.0231  66.7441 0001649  91.2357 174.4228  1.00272077 43515
EUTELSAT 53A            
1 40277U 14064A   26256.44514528  .00000000  00000+0  00000+0 0  9997
2 40277   0.0206 164.0929 0001872  27.8096  13.7799  1.00273759 42456
GSAT-16                 
1 40332U 14078A   26257.15833712  .00000076  00000+0  00000+0 0  9995
2 40332   0.0185 233.4673 0005947 238.0269 353.7234  1.00272173 43019
DIRECTV 14              
1 40333U 14078B   26257.18842811 -.00000134  00000+0  00000+0 0  9995
2 40333   0.0187 103.5207 0000655 334.4273 243.8128  1.00270758 42937
YAMAL 401               
1 40345U 14082A   26256.80889487 -.00000238  00000+0  00000+0 0  9996
2 40345   0.0161 191.5426 0000912  48.1966 134.2058  1.00269635 42809
ASTRA 2G                
1 40364U 14089A   26257.15305043  .00000141  00000+0  00000+0 0  9996
2 40364   0.0623 348.5121 0003016 104.9064 342.9758  1.00272043 42854
FENGYUN 2G              
1 40367U 14090A   26257.02460985 -.00000311  00000+0  00000+0 0  9994
2 40367   5.8581  71.7017 0003796 187.2732 202.6473  1.00274006 42894
MUOS-3                  
1 40374U 15002A   26257.14447037 -.00000136  00000+0  00000+0 0  9997
2 40374   4.6909  43.7840 0057864 178.4703 167.3903  1.00273617 42477
INMARSAT 5-F2           
1 40384U 15005A   26256.97266873 -.00000295  00000+0  00000+0 0  9994
2 40384   0.0200 148.8884 0000736  14.9904 124.2268  1.00272507 41887
ABS-3A                  
1 40424U 15010A   26257.14689705 -.00000035  00000+0  00000+0 0  9990
2 40424   0.0016 174.5864 0002105 304.9460 283.5051  1.00272835 42268
EUTELSAT 115 WEST B     
1 40425U 15010B   26257.13142329 -.00000034  00000+0  00000+0 0  9995
2 40425   0.0228 319.9822 0000187 128.5278 197.0327  1.00272147 42270
EXPRESS-AM7             
1 40505U 15012A   26257.15539044  .00000142  00000+0  00000+0 0  9991
2 40505   0.0150 111.7396 0003146  65.6418 271.6941  1.00274006 41896
BEIDOU-3S IGSO-1S       
1 40549U 15019A   26256.07752948 -.00000168  00000+0  00000+0 0  9995
2 40549  49.0267 294.3950 0038755 200.8292 340.5769  1.00289448 41954
THOR 7                  
1 40613U 15022A   26257.14733041 -.00000017  00000+0  00000+0 0  9996
2 40613   0.0137 209.9132 0002576 322.5349 233.0723  1.00271319 41707
TURKMENALEM52E/MONACOSAT
1 40617U 15023A   26257.15773044  .00000095  00000+0  00000+0 0  9994
2 40617   0.0367  96.1815 0003016  79.1585 286.6087  1.00273761 41741
DIRECTV 15              
1 40663U 15026A   26257.07454823 -.00000112  00000+0  00000+0 0  9991
2 40663   0.0143 114.9671 0000588  17.8501 144.2214  1.00272861 41359
SKY MEXICO-1            
1 40664U 15026B   26256.49038550 -.00000245  00000+0  00000+0 0  9999
2 40664   0.0172 118.3544 0001938  52.1718 279.7093  1.00272402 41339
METEOSAT-11 (MSG-4)     
1 40732U 15034A   26257.14932374  .00000054  00000+0  00000+0 0  9991
2 40732   3.4187  70.4636 0000618  75.9657 269.7046  1.00272835  8102
STAR ONE C4             
1 40733U 15034B   26257.13816418 -.00000274  00000+0  00000+0 0  9996
2 40733   0.0432  16.3278 0000921 139.6714 176.8703  1.00272042 40901
WGS F7 (USA 263)        
1 40746U 15036A   26256.82570829  .00000008  00000+0  00000+0 0  9994
2 40746   0.0111 155.1301 0000268 280.6096  29.3025  1.00272073 40769
INTELSAT 34 (IS-34)     
1 40874U 15039A   26257.06517002  .00000000  00000+0  00000+0 0  9992
2 40874   0.0090 195.0992 0000441 217.7721 268.1393  1.00270724 40521
EUTELSAT 8 WEST B       
1 40875U 15039B   26257.14585705 -.00000074  00000+0  00000+0 0  9999
2 40875   0.0669 350.7066 0003651 181.4591 225.5085  1.00270901 40548
GSAT-6                  
1 40880U 15041A   26257.16345046 -.00000168  00000+0  00000+0 0  9996
2 40880   2.1422  81.3685 0002976  90.4788 322.6205  1.00271255 40494
INMARSAT 5-F3           
1 40882U 15042A   26256.82666163  .00000040  00000+0  00000+0 0  9995
2 40882   0.0211 139.2872 0001101 237.6471  93.0281  1.00272132 40468
MUOS-4                  
1 40887U 15044A   26257.01984316 -.00000100  00000+0  00000+0 0  9995
2 40887   4.4964  42.6435 0053184   3.7354  28.7514  1.00272175 40458
TJS-1                   
1 40892U 15046A   26257.17818387 -.00000164  00000+0  00000+0 0  9994
2 40892   0.5470  84.0421 0003411  66.6298  61.6433  1.00273491 40460
EXPRESS-AM8             
1 40895U 15048A   26257.14473038 -.00000120  00000+0  00000+0 0  9998
2 40895   0.0165 182.7415 0000084 357.4233 211.0756  1.00273549 40239
BEIDOU-3S IGSO-2S       
1 40938U 15053A   26256.94298389 -.00000126  00000+0  00000+0 0  9999
2 40938  49.0903 257.7169 0065525 192.6497 337.8155  1.00284621 40245
SKY MUSTER 1 (NBN1A)    
1 40940U 15054A   26256.94916377 -.00000288  00000+0  00000+0 0  9996
2 40940   0.0185 233.8506 0001664 289.9673 311.0737  1.00272843 40150
ARSAT 2                 
1 40941U 15054B   26257.13496542 -.00000234  00000+0  00000+0 0  9997
2 40941   0.0179  79.6030 0001815  84.3015 156.8006  1.00272390 40192
MORELOS 3               
1 40946U 15056A   26257.19425700 -.00000051  00000+0  00000+0 0  9995
2 40946   3.2677  17.2297 0003194 185.0809 107.7073  1.00272575 40172
APSTAR-9                
1 40982U 15059A   26257.17549720 -.00000275  00000+0  00000+0 0  9993
2 40982   0.0356  30.8411 0002476 147.1633  20.3482  1.00270773 40000
TURKSAT 4B              
1 40984U 15060A   26257.15738377  .00000106  00000+0  00000+0 0  9995
2 40984   0.0169 209.4803 0002024 325.6644 284.6444  1.00270467 39985
ZHONGXING-2C            
1 41021U 15063A   26257.09663019 -.00000333  00000+0  00000+0 0  9997
2 41021   0.4976  86.8192 0009650 115.5443 288.9582  1.00272082 39874
GSAT-15                 
1 41028U 15065A   26257.02339653 -.00000267  00000+0  00000+0 0  9999
2 41028   0.0388 261.0993 0001777 243.3625 310.4362  1.00270407 39689
BADR-7 (ARABSAT-6B)     
1 41029U 15065B   26257.15261708  .00000136  00000+0  00000+0 0  9993
2 41029   0.0361 226.9904 0006303 352.2449 214.8268  1.00271192 39658
LAOSAT 1                
1 41034U 15067A   26256.95906957  .00000000  00000+0  00000+0 0  9990
2 41034   0.0061 326.9744 0002549 147.0424 352.7050  1.00270873 39752
TELSTAR 12V             
1 41036U 15068A   26257.14447037 -.00000128  00000+0  00000+0 0  9996
2 41036   0.0121 117.5568 0002105  53.6929 218.8896  1.00272080 39515
ELEKTRO-L 2             
1 41105U 15074A   26256.78818146 -.00000125  00000+0  00000+0 0  9999
2 41105   6.9115  69.4006 0001727 197.0060 355.5974  1.00272144 39393
COSMOS 2513             
1 41121U 15075A   26257.16336381 -.00000148  00000+0  00000+0 0  9992
2 41121   0.0474 104.4872 0001213  98.0087 289.7297  1.00273754 39444
EXPRESS-AMU1            
1 41191U 15082A   26257.15461044  .00000147  00000+0  00000+0 0  9999
2 41191   0.0082 226.8913 0002357 310.8785 267.1252  1.00270218 39152
GAOFEN-4                
1 41194U 15083A   26257.05669690 -.00000344  00000+0  00000+0 0  9999
2 41194   0.5813  83.3535 0003564 138.7121 257.0988  1.00270964 39422
BELINTERSAT-1           
1 41238U 16001A   26257.15764377  .00000098  00000+0  00000+0 0  9993
2 41238   0.0242  83.7359 0000715  18.1291 359.5509  1.00273184 39136
IRNSS-1E                
1 41241U 16003A   26256.88436257 -.00000298  00000+0  00000+0 0  9994
2 41241  33.4280  58.4676 0021489 180.2785 184.3369  1.00275899 38977
EUTELSAT 9B             
1 41310U 16005A   26257.14923706  .00000053  00000+0  00000+0 0  9991
2 41310   0.0563  70.7405 0002432 137.9307 207.1880  1.00273696 39001
SES-9                   
1 41380U 16013A   26257.02634321  .00000000  00000+0  00000+0 0  9998
2 41380   0.0111 168.1771 0001947 318.8379 343.7670  1.00269923 38331
EUTELSAT 65 WEST A      
1 41382U 16014A   26257.13459034 -.00000285  00000+0  00000+0 0  9995
2 41382   0.0725 314.8297 0002195 211.7820 169.7734  1.00272671 38415
IRNSS-1F                
1 41384U 16015A   26257.15391708  .00000150  00000+0  00000+0 0  9993
2 41384   5.5669  94.7259 0020034 175.4813 170.8441  1.00275973 38557
BEIDOU-2 IGSO-6         
1 41434U 16021A   26256.89505284 -.00000162  00000+0  00000+0 0  9996
2 41434  60.3572  37.1627 0061757 228.1989 146.1166  1.00282369 38379
IRNSS-1G                
1 41469U 16027A   26256.95924293 -.00000343  00000+0  00000+0 0  9993
2 41469   5.4100  95.4086 0003883  47.6947 324.5341  1.00264476 38077
JCSAT-2B                
1 41471U 16028A   26256.44961480 -.00000176  00000+0  00000+0 0  9994
2 41471   0.0187 147.1651 0000889  10.6680 150.4772  1.00272308 38017
THAICOM 8               
1 41552U 16031A   26257.16301713 -.00000130  00000+0  00000+0 0  9995
2 41552   0.0715  23.4277 0001157  80.0630  26.8637  1.00270921 37619
INTELSAT 31 (IS-31)     
1 41581U 16035A   26257.05737000 -.00000160  00000+0  00000+0 0  9994
2 41581   0.0250 236.2674 0001302  56.6400 345.7541  1.00273387 37577
BEIDOU-2 G7             
1 41586U 16037A   26257.02677654 -.00000362  00000+0  00000+0 0  9990
2 41586   1.9358  69.6757 0005318 352.3425  51.1661  1.00275190  7780
ABS-2A (MONGOLSAT-1)    
1 41588U 16038A   26257.16223713  .00000000  00000+0  00000+0 0  9999
2 41588   0.0219 164.3236 0001772 307.0844  14.8447  1.00269953 37607
EUTELSAT 117 WEST B     
1 41589U 16038B   26257.18767884 -.00000021  00000+0  00000+0 0  9998
2 41589   0.0371  15.3309 0000173 212.9627  75.4425  1.00272201 37553
BRISAT                  
1 41591U 16039A   26256.89216262 -.00000206  00000+0  00000+0 0  9993
2 41591   0.0181 242.2560 0002165 284.1552 298.1496  1.00273325 37501
ECHOSTAR 18             
1 41592U 16039B   26257.07768391 -.00000291  00000+0  00000+0 0  9994
2 41592   0.0184 151.9831 0001700  14.5139 153.1698  1.00272937 37515
MUOS-5                  
1 41622U 16041A   26257.18750134 -.00000170  00000+0  00000+0 0  9995
2 41622   2.0216 303.6829 0203698 260.7649 111.2468  1.00272653 37987
TIANTONG-1 1            
1 41725U 16048A   26256.95369622 -.00000326  00000+0  00000+0 0  9991
2 41725   4.0206  43.9955 0002428  77.1521 316.5436  1.00273795 37166
JCSAT-16                
1 41729U 16050A   26257.17601720 -.00000260  00000+0  00000+0 0  9998
2 41729   0.0183 160.7674 0001003   3.9343  35.7815  1.00271327 36960
USA 270                 
1 41744U 16052A   26255.31930182 -.00000362  00000+0  00000+0 0  9991
2 41744   4.4143  76.0310 0008344 114.6601  41.9377  1.00271630 29005
USA 271                 
1 41745U 16052B   26255.66193895  .00000074  00000+0  00000+0 0  9991
2 41745   4.3889  76.0998 0002659 171.2472  40.0508  0.99059437 28799
INTELSAT 36 (IS-36)     
1 41747U 16053A   26257.16102380  .00000000  00000+0  00000+0 0  9999
2 41747   0.0104 152.9306 0001957 206.9175 119.7687  1.00269320 36852
INSAT-3DR               
1 41752U 16054A   26257.07336449 -.00000086  00000+0  00000+0 0  9996
2 41752   0.0311 104.8943 0011587 159.6515 188.9377  1.00271863 36706
GSAT-18                 
1 41793U 16060A   26257.01958316 -.00000086  00000+0  00000+0 0  9995
2 41793   0.0153 159.4567 0002995 315.8001 318.7704  1.00271398 36410
SKY MUSTER 2 (NBN1B)    
1 41794U 16060B   26257.17601720 -.00000253  00000+0  00000+0 0  9993
2 41794   0.0166 230.7750 0001521 292.1578  38.4008  1.00272541 36416
HIMAWARI-9              
1 41836U 16064A   26256.81894826 -.00000284  00000+0  00000+0 0  9999
2 41836   0.0248 267.2309 0000973 278.5570 242.5933  1.00273248 36093
SHIJIAN-17 (SJ-17)      
1 41838U 16065A   26256.99141889 -.00000278  00000+0  00000+0 0  9998
2 41838   5.9729  71.4902 0001784  70.2533 313.9111  0.99857240 36092
GOES 16                 
1 41866U 16071A   26256.98742984 -.00000100  00000+0  00000+0 0  9992
2 41866   0.5551  84.5497 0001660 129.8959  29.3330  1.00272677 35994
TIANLIAN 1-04           
1 41869U 16072A   26257.18260389  .00000022  00000+0  00000+0 0  9995
2 41869   1.0910  82.0896 0046985  96.0679  57.5297  1.00270675 36195
WGS F8 (USA 272)        
1 41879U 16075A   26256.48319116 -.00000214  00000+0  00000+0 0  9998
2 41879   0.0220 126.7514 0000212  69.5404 119.9323  1.00269924 35700
FENGYUN 4A              
1 41882U 16077A   26256.45901201 -.00000368  00000+0  00000+0 0  9993
2 41882   2.5408  79.1609 0008096 166.9886  34.7092  1.00267682 35817
ECHOSTAR 19             
1 41893U 16079A   26257.18880697 -.00000147  00000+0  00000+0 0  9998
2 41893   0.0207 151.3410 0001433  14.9829 157.7228  1.00272112 35595
JCSAT-110A (JCSAT-15)   
1 41903U 16082A   26257.05113940 -.00000360  00000+0  00000+0 0  9997
2 41903   0.0070 143.7860 0000587  32.0717 305.6620  1.00271660 35659
STAR ONE D1             
1 41904U 16082B   26256.25918014  .00000000  00000+0  00000+0 0  9994
2 41904   0.0260 129.1595 0002351  49.4318 182.9913  1.00266375 35652
TJS-2                   
1 41911U 17001A   26257.16067713 -.00000015  00000+0  00000+0 0  9993
2 41911   1.0566  83.9434 0001524 150.6420 242.9651  1.00271121 35616
SBIRS GEO-4 (USA 273)   
1 41937U 17004A   26257.14369037 -.00000231  00000+0  00000+0 0  9996
2 41937   2.4178  45.3446 0002184 104.8251 235.4556  0.99675760 35489
HISPASAT 36W-1          
1 41942U 17006A   26256.96711659 -.00000254  00000+0  00000+0 0  9999
2 41942   0.0076 348.0402 0001030 179.5740 137.5095  1.00272539 35134
TELKOM 3S               
1 41944U 17007A   26257.04002971 -.00000372  00000+0  00000+0 0  9993
2 41944   0.0169 189.4844 0002263 342.5714 313.3895  1.00271956 35031
INTELSAT 32E (IS-32E)   
1 41945U 17007B   26256.49740552 -.00000280  00000+0  00000+0 0  9994
2 41945   0.0248 245.0868 0000561 207.6509  35.6511  1.00273073 35117
ECHOSTAR 23             
1 42070U 17014A   26257.18566441  .00000000  00000+0  00000+0 0  9991
2 42070   0.0217 154.0708 0002175  11.2320 144.8016  1.00270502 34811
WGS F9 (USA 275)        
1 42075U 17016A   26257.14507705  .00000000  00000+0  00000+0 0  9992
2 42075   0.0214 175.9616 0000110 259.3216 318.0925  1.00268507 34781
SES-10                  
1 42432U 17017A   26256.50420446 -.00000283  00000+0  00000+0 0  9999
2 42432   0.0181  75.9779 0002770  96.4230 294.7193  1.00272221 34640
CHINASAT 16 (SJ-13)     
1 42662U 17018A   26256.52783358 -.00000363  00000+0  00000+0 0  9990
2 42662   0.0802  92.2958 0007009 135.2397  65.5523  1.00274121 34633
KOREASAT 7              
1 42691U 17023A   26257.02772987 -.00000371  00000+0  00000+0 0  9999
2 42691   0.0220  34.5758 0000969 154.1465 290.1814  1.00272250 34269
SGDC                    
1 42692U 17023B   26256.22953729  .00000000  00000+0  00000+0 0  9994
2 42692   0.0178 149.2836 0002244  27.8652 182.8526  1.00270745 34281
GSAT-9                  
1 42695U 17024A   26257.02417653 -.00000295  00000+0  00000+0 0  9995
2 42695   0.0267 112.8378 0002739  68.1796 277.9741  1.00268164 34182
INMARSAT 5-F4           
1 42698U 17025A   26256.88064051  .00000000  00000+0  00000+0 0  9995
2 42698   0.0222 149.8517 0000561  21.6231 194.9151  1.00270685 34162
SES-15                  
1 42709U 17026A   26257.19815036  .00000051  00000+0  00000+0 0  9997
2 42709   0.0461 337.0202 0000408 165.3493 152.9887  1.00269074  8327
QZS-2 (MICHIBIKI-2)     
1 42738U 17028A   26256.81747492 -.00000181  00000+0  00000+0 0  9994
2 42738  39.3013 241.8488 0750376 270.4224 276.3205  1.00261099  8516
VIASAT-2                
1 42740U 17029A   26257.13816382 -.00000274  00000+0  00000+0 0  9992
2 42740   0.0210 241.9854 0001109 256.6852 194.2524  1.00276202 34082
EUTELSAT 172B           
1 42741U 17029B   26257.11023691 -.00000015  00000+0  00000+0 0  9997
2 42741   0.0230 142.6434 0000200 277.5883 144.5539  1.00272472 34644
GSAT-19                 
1 42747U 17031A   26257.15695044  .00000116  00000+0  00000+0 0  9998
2 42747   0.0241 110.6813 0003649   2.9253 343.9036  1.00273429 34032
ECHOSTAR 21             
1 42749U 17032A   26257.14949707  .00000057  00000+0  00000+0 0  9992
2 42749   1.7814   1.3868 0002338 175.5029 240.3150  1.00272096 33996
BULGARIASAT-1           
1 42801U 17038A   26255.93615939 -.00000003  00000+0  00000+0 0  9991
2 42801   0.0105 209.8471 0003220 342.2370 138.7503  1.00264409 33720
HELLAS-SAT 3            
1 42814U 17040A   26257.15521711  .00000143  00000+0  00000+0 0  9992
2 42814   0.0750  53.0840 0001953  60.2094 334.7329  1.00274423 33709
GSAT-17                 
1 42815U 17040B   26256.95213622 -.00000267  00000+0  00000+0 0  9997
2 42815   0.0161 164.7460 0003963  87.6361 176.8101  1.00269979 33676
INTELSAT 35E (IS-35E)   
1 42818U 17041A   26256.42789853 -.00000249  00000+0  00000+0 0  9997
2 42818   0.0162 125.4115 0002064  51.6142 294.9445  1.00270980 33701
COSMOS 2520             
1 42907U 17046A   26257.15634377  .00000128  00000+0  00000+0 0  9997
2 42907   0.0246 121.4419 0000046 124.2376 208.7502  1.00272653 33289
TDRS 13                 
1 42915U 17047A   26257.14516373 -.00000107  00000+0  00000+0 0  9999
2 42915   3.4833   4.8582 0013643 121.4107 267.7296  1.00271854 33243
QZS-3 (MICHIBIKI-3)     
1 42917U 17048A   26257.03006990 -.00000357  00000+0  00000+0 0  9996
2 42917   0.0533 158.1588 0001640 350.9449 341.7831  1.00274229 33153
AMAZONAS 5              
1 42934U 17053A   26257.21326894 -.00000291  00000+0  00000+0 0  9996
2 42934   0.0578 325.1658 0002057 242.9256 160.8788  1.00271022 32938
ASIASAT 9               
1 42942U 17057A   26256.95776958 -.00000369  00000+0  00000+0 0  9995
2 42942   0.0143 169.7420 0002075 357.2505 292.8531  1.00271712 32759
INTELSAT 37E (IS-37E)   
1 42950U 17059A   26257.14386372 -.00000149  00000+0  00000+0 0  9991
2 42950   0.0208 142.2607 0002640  28.2141 216.4523  1.00272636 32953
BSAT-4A                 
1 42951U 17059B   26256.74155457  .00000000  00000+0  00000+0 0  9990
2 42951   0.0125  17.3464 0001692  87.9831 264.1833  1.00267625 32685
QZS-4 (MICHIBIKI-4)     
1 42965U 17062A   26256.56123137 -.00000344  00000+0  00000+0 0  9991
2 42965  40.0504 342.3571 0749412 269.6745  83.2165  1.00274518 32695
SES-11 (ECHOSTAR 105)   
1 42967U 17063A   26257.18705083 -.00000098  00000+0  00000+0 0  9995
2 42967   0.0459 315.9637 0002693 197.5531 162.0400  1.00272080 32618
KOREASAT 5A             
1 42984U 17067A   26257.02729654 -.00000367  00000+0  00000+0 0  9990
2 42984   0.0196 257.8271 0000864 289.4183 288.7479  1.00272316 32428
ALCOMSAT 1              
1 43039U 17078A   26257.14256369 -.00000195  00000+0  00000+0 0  9994
2 43039   0.0360  51.6503 0002081 108.0932 219.9139  1.00270971 32189
SBIRS GEO-3 (USA 282)   
1 43162U 18009A   26257.21990014  .00000120  00000+0  00000+0 0  9993
2 43162   2.2574  16.0681 0001836 155.5183 101.3837  1.00272728 31732
AL YAH 3                
1 43174U 18012A   26257.14351705 -.00000164  00000+0  00000+0 0  9999
2 43174   1.7757  81.9075 0003458  89.1006 213.6980  1.00272430 31734
SES-14                  
1 43175U 18012B   26257.06681670 -.00000287  00000+0  00000+0 0  9994
2 43175   0.0195  68.8827 0001158  85.8785 174.8528  1.00275059  7913
GOES 17                 
1 43226U 18022A   26257.19111916 -.00000191  00000+0  00000+0 0  9991
2 43226   1.1605  84.2119 0000799 127.4791 120.7981  1.00272267 31316
HISPASAT 30W-6          
1 43228U 18023A   26257.14152369 -.00000225  00000+0  00000+0 0  9994
2 43228   0.0470  38.9431 0003391 100.3392 234.7911  1.00270514 31296
SUPERBIRD-B3            
1 43271U 18033A   26257.10815690 -.00000101  00000+0  00000+0 0  9995
2 43271   0.0204 138.5194 0001018  32.1554  23.3704  1.00272400 30958
HYLAS 4                 
1 43272U 18033B   26256.42807186 -.00000244  00000+0  00000+0 0  9999
2 43272   0.0825 269.0870 0001015 269.6246 294.2996  1.00272940 30952
IRNSS-1I                
1 43286U 18035A   26257.08692346  .00000081  00000+0  00000+0 0  9997
2 43286  28.9598  72.8099 0020640 177.8840 188.7912  1.00271711 30973
USA 283                 
1 43339U 18036A   26254.46540522  .00000000  00000+0  00000+0 0  9995
2 43339   0.0209 148.4712 0000149  50.5989  93.0023  1.00264800 26154
COSMOS 2526             
1 43432U 18037A   26256.88774260 -.00000354  00000+0  00000+0 0  9999
2 43432   0.0101 168.6492 0000428  36.4474 235.4150  1.00272388 30844
APSTAR-6C               
1 43450U 18041A   26257.02073578 -.00000327  00000+0  00000+0 0  9995
2 43450   0.0619 302.5709 0001676 282.8547 269.0583  1.00273589 30704
BANGABANDHUSAT-1        
1 43463U 18044A   26257.06364280 -.00000372  00000+0  00000+0 0  9999
2 43463   0.0250 114.4060 0002302  65.9734 314.6871  1.00271698 30609
SES-12                  
1 43488U 18049A   26257.09498351 -.00000279  00000+0  00000+0 0  9997
2 43488   0.0182  69.2079 0001612 170.2168 242.8517  1.00272212 30311
FENGYUN 2H              
1 43491U 18050A   26257.16319047 -.00000137  00000+0  00000+0 0  9998
2 43491   3.2543  77.9587 0002564 150.5988 262.6540  1.00272094 30335
BEIDOU-2 IGSO-7         
1 43539U 18057A   26256.53372733 -.00000154  00000+0  00000+0 0  9998
2 43539  55.2132 162.3064 0108071 236.7749 258.1327  1.00276962 30016
TELSTAR 19V             
1 43562U 18059A   26256.97822661 -.00000289  00000+0  00000+0 0  9993
2 43562   0.0112 194.9266 0002355 337.3349 109.8739  1.00274602 30035
TELKOM 4 (MERAH PUTIH)  
1 43587U 18064A   26257.05113940 -.00000353  00000+0  00000+0 0  9991
2 43587   0.0192 184.9137 0001186 345.8246 308.7105  1.00272262 29773
TELSTAR 18V             
1 43611U 18069A   26256.55547380 -.00000304  00000+0  00000+0 0  9993
2 43611   0.0272 255.2196 0001841 275.6845 159.6282  1.00271470 29522
AZERSPACE 2 (IS-38)     
1 43632U 18074A   26257.15643044  .00000000  00000+0  00000+0 0  9995
2 43632   0.0213 152.3870 0001977  10.2314 291.9563  1.00272270 29330
HORIZONS-3E             
1 43633U 18074B   26256.33170041 -.00000042  00000+0  00000+0 0  9994
2 43633   0.0127 168.2169 0000680  19.0402  93.4893  1.00272413 29225
AEHF-4 (USA 288)        
1 43651U 18079A   26257.13854442 -.00000283  00000+0  00000+0 0  9999
2 43651   1.4211 358.1055 0068659   0.8275 336.4203  1.00267397 29189
BEIDOU-3 G1             
1 43683U 18085A   26257.17922388 -.00000117  00000+0  00000+0 0  9996
2 43683   2.6142  94.8565 0006026  20.5189 102.3749  1.00271797 28951
GSAT-29                 
1 43698U 18089A   26257.15833712  .00000075  00000+0  00000+0 0  9998
2 43698   0.0497 269.2087 0001598 254.7308 301.2689  1.00275810 28685
ES'HAIL 2               
1 43700U 18090A   26257.15261708  .00000136  00000+0  00000+0 0  9992
2 43700   0.0143 118.2364 0002585  86.9171 228.7370  1.00274934 28561
GEO-KOMPSAT-2A          
1 43823U 18100A   26257.06364280 -.00000353  00000+0  00000+0 0  9991
2 43823   0.0346  28.0138 0001899  87.0658  29.1524  1.00273357 28526
GSAT-11                 
1 43824U 18100B   26257.16215046 -.00000086  00000+0  00000+0 0  9991
2 43824   0.0776 269.0072 0006682 209.3638   7.1475  1.00271867 28378
GSAT-7A                 
1 43864U 18105A   26257.15989713  .00000017  00000+0  00000+0 0  9991
2 43864   0.0252 104.7909 0001867  76.3023 292.4105  1.00273847 28341
COSMOS 2533             
1 43867U 18107A   26257.16137047 -.00000048  00000+0  00000+0 0  9997
2 43867   0.0151 130.5836 0000282 179.4304 171.2054  1.00273979 28348
TJS-3                   
1 43874U 18110A   26256.77142977 -.00000023  00000+0  00000+0 0  9996
2 43874   2.7670  79.3439 0003955 137.0757 220.9165  1.00452555 28302
ZHONGXING-2D            
1 43920U 19001A   26256.96246090 -.00000346  00000+0  00000+0 0  9998
2 43920   0.0569 319.0981 0001350 354.0719 156.2969  1.00272148 54977
HELLAS-SAT 4 & SGS-1    
1 44034U 19007A   26256.58494719  .00000142  00000+0  00000+0 0  9995
2 44034   0.0621 131.0855 0006058  30.5677  80.5188  1.00272627 28261
GSAT-31                 
1 44035U 19007B   26257.08571013  .00000000  00000+0  00000+0 0  9998
2 44035   0.0198 172.3059 0003582  51.9538 207.5330  1.00269736 27858
NUSANTARA SATU          
1 44048U 19009A   26257.17636387 -.00000243  00000+0  00000+0 0  9990
2 44048   0.0237 142.2213 0004596   6.0886  54.3612  1.00272158 27669
ZHONGXING-6C            
1 44067U 19012A   26256.95959793 -.00000345  00000+0  00000+0 0  9992
2 44067   0.0534 313.1352 0014152 108.9621  46.7676  1.00270476 27634
WGS 10 (USA 291)        
1 44071U 19014A   26256.80300152  .00000037  00000+0  00000+0 0  9999
2 44071   0.0081 172.1789 0000181 196.5540 333.4405  1.00272095 27504
TIANLIAN 2-01           
1 44076U 19017A   26256.94884287 -.00000116  00000+0  00000+0 0  9997
2 44076   0.7630  82.5345 0003080 122.8050 206.1929  1.00271889 27537
ARABSAT-6A              
1 44186U 19021A   26256.72586784  .00000000  00000+0  00000+0 0  9992
2 44186   0.0203  19.0724 0003586 235.6022  29.8910  1.00276882 27041
BEIDOU-3 IGSO-1         
1 44204U 19023A   26256.89610309 -.00000216  00000+0  00000+0 0  9994
2 44204  58.8231  36.7420 0027803 223.4337 174.0981  1.00266072  8102
BEIDOU-2 G8             
1 44231U 19027A   26257.17610387 -.00000255  00000+0  00000+0 0  9999
2 44231   1.8785  74.3141 0009084 278.7853 208.0145  1.00271679 26973
YAMAL 601               
1 44307U 19031A   26257.15721045  .00000111  00000+0  00000+0 0  9990
2 44307   0.0096 158.4289 0002397   8.3426 291.9664  1.00271902 26812
AT&T T-16               
1 44333U 19034A   26257.18796571 -.00000124  00000+0  00000+0 0  9996
2 44333   0.0185 129.2315 0000662 306.9993 243.7593  1.00270171 26526
EUTELSAT 7C             
1 44334U 19034B   26257.14880374  .00000039  00000+0  00000+0 0  9992
2 44334   0.0696 179.4069 0003177 336.9533 257.3285  1.00271621  7725
BEIDOU-3 IGSO-2         
1 44337U 19035A   26256.53374566 -.00000138  00000+0  00000+0 0  9990
2 44337  55.2506 158.0868 0038688 211.3738 294.9985  1.00272791 26553
COSMOS 2539             
1 44457U 19048A   26256.29454414  .00000070  00000+0  00000+0 0  9995
2 44457   0.0163 126.2102 0000595 126.3630 217.7679  1.00275544 26117
EDRS-C                  
1 44475U 19049A   26257.17558387 -.00000271  00000+0  00000+0 0  9992
2 44475   0.0127 184.7547 0001102 344.9922  29.1226  1.00271798 26105
INTELSAT 39 (IS-39)     
1 44476U 19049B   26256.09058998  .00000021  00000+0  00000+0 0  9998
2 44476   0.0146 209.7619 0000734 254.2476 342.6400  1.00273277 26002
AMOS-17                 
1 44479U 19050A   26255.72529846  .00000097  00000+0  00000+0 0  9990
2 44479   0.0423 355.4308 0001698 182.8108  91.6398  1.00275730 26064
AEHF-5 (USA 292)        
1 44481U 19051A   26257.02339653 -.00000267  00000+0  00000+0 0  9994
2 44481   1.3929 343.5659 0029140  12.2156  98.7292  1.00273558 26157
EUTELSAT 5 WEST B       
1 44624U 19067A   26257.14646373 -.00000051  00000+0  00000+0 0  9994
2 44624   0.0776 323.9172 0003132 206.9518 229.9857  1.00271854 25310
MEV-1                   
1 44625U 19067B   26257.20286572 -.00000155  00000+0  00000+0 0  9998
2 44625   0.8207 267.9753 0004160 263.8733  50.5024  1.00273096 62453
TJS-4                   
1 44637U 19070A   26256.66502755 -.00000179  00000+0  00000+0 0  9994
2 44637   0.0461  99.3013 0003125 147.0857  69.1304  1.00269185 25423
BEIDOU-3 IGSO-3         
1 44709U 19073A   26256.46757716 -.00000171  00000+0  00000+0 0  9996
2 44709  54.6526 279.9352 0046837 198.0944 161.7791  1.00263441 25341
TIBA-1                  
1 44800U 19080A   26257.15452376  .00000147  00000+0  00000+0 0  9999
2 44800   0.0562 339.6966 0002356 198.2996 266.2488  1.00273859 24943
INMARSAT GX5            
1 44801U 19080B   26257.14967042  .00000000  00000+0  00000+0 0  9998
2 44801   0.0201  37.9037 0002134 140.7343 239.3737  1.00269563  7679
JCSAT-18 (KACIFIC 1)    
1 44868U 19091A   26257.04697439 -.00000210  00000+0  00000+0 0  9996
2 44868   0.0488 338.6127 0000130 294.8910 246.4478  1.00272274 24904
ELEKTRO-L 3             
1 44903U 19095A   26257.08995682  .00000036  00000+0  00000+0 0  9990
2 44903   0.4803  82.3536 0030887  75.4576 297.3588  0.99822318 24600
SHIJIAN-20 (SJ-20)      
1 44910U 19097A   26257.15547711  .00000140  00000+0  00000+0 0  9990
2 44910   5.1421  73.9208 0002654 168.7615 206.7468  1.00273511 24596
TJS-5                   
1 44978U 20002A   26257.02625654 -.00000351  00000+0  00000+0 0  9996
2 44978   0.2178  83.2133 0007433 348.2253  38.5251  1.00269780 24605
GSAT-30                 
1 45026U 20005A   26257.07336449 -.00000173  00000+0  00000+0 0  9992
2 45026   0.0100 132.6593 0001791 353.7219 336.0785  1.00269910 24407
EUTELSAT KONNECT        
1 45027U 20005B   26257.14889041  .00000040  00000+0  00000+0 0  9994
2 45027   0.0659  99.4626 0001177  87.6624 226.7949  1.00269172 25223
JCSAT-17                
1 45245U 20013A   26256.74666793 -.00000326  00000+0  00000+0 0  9995
2 45245   5.3974 357.6886 0004253 177.2438 222.5840  1.00271646 24128
GEO-KOMPSAT-2B          
1 45246U 20013B   26257.06364280 -.00000353  00000+0  00000+0 0  9998
2 45246   0.0436 322.2099 0001041 265.9370 276.0825  1.00273366 24173
BEIDOU-3 G2             
1 45344U 20017A   26257.16336381 -.00000148  00000+0  00000+0 0  9995
2 45344   2.5847  48.4269 0002089 128.6715 314.9134  1.00272354 24151
AEHF-6 (USA 298)        
1 45465U 20022B   26256.96097625 -.00000309  00000+0  00000+0 0  9996
2 45465   2.3644 302.4738 0042247  10.9034 163.2694  1.00270509 23907
BEIDOU-3 G3             
1 45807U 20040A   26257.02677654 -.00000362  00000+0  00000+0 0  9999
2 45807   2.6611  67.4154 0002672 284.1344 121.6362  1.00268979 22964
APSTAR-6D               
1 45863U 20045A   26255.96224618 -.00000331  00000+0  00000+0 0  9991
2 45863   0.0457 105.7008 0002907 343.3683  23.3018  1.00266424 22740
KOREASAT 116            
1 45920U 20048A   26257.02772987 -.00000371  00000+0  00000+0 0  9998
2 45920   0.0158 246.3057 0000977 273.3071 319.5828  1.00274524 22532
EXPRESS 103             
1 45985U 20053A   26257.06169885 -.00000291  00000+0  00000+0 0  9997
2 45985   0.0356 262.5321 0000837 332.1198 237.1288  1.00276226 22543
EXPRESS 80              
1 45986U 20053B   26257.16336381  .00000000  00000+0  00000+0 0  9993
2 45986   0.0174 175.8904 0001912 232.4522  83.5957  1.00270273 22534
BSAT-4B                 
1 46112U 20056A   26257.05113940 -.00000359  00000+0  00000+0 0  9998
2 46112   0.0208 187.8171 0004134 326.4548 327.0022  1.00270725 22287
MEV-2                   
1 46113U 20056B   26257.14724374 -.00000020  00000+0  00000+0 0  9993
2 46113   0.0418 260.8825 0000118  55.3638  88.8904  1.00272480 81629
GALAXY 30 (G-30)        
1 46114U 20056C   26256.90880270  .00000000  00000+0  00000+0 0  9992
2 46114   0.0220 151.9307 0002241  19.3699  23.7644  1.00272319 22188
GAOFEN-13 01            
1 46610U 20071A   26257.04002972 -.00000372  00000+0  00000+0 0  9994
2 46610   0.1301  80.3586 0058893 121.1882 284.3226  1.00275523 21814
TIANTONG-1 2            
1 46916U 20082A   26257.02963655 -.00000365  00000+0  00000+0 0  9999
2 46916   0.7085 342.0557 0000548 226.3520 280.2198  1.00272769 21547
LUCAS (JDRS-1)          
1 47202U 20089A   26257.09420351 -.00000245  00000+0  00000+0 0  9990
2 47202   0.0492 283.8306 0002031 262.1809 291.7695  1.00273268 21311
SXM-7                   
1 47240U 20096A   26256.06146985 -.00000217  00000+0  00000+0 0  9993
2 47240   0.0172 130.3321 0004553 354.1291 164.5533  1.00271412  8322
CMS-01                  
1 47256U 20099A   26257.07336449 -.00000174  00000+0  00000+0 0  9993
2 47256   0.0418  97.6380 0004808 156.9013 207.9253  1.00272705 21091
TURKSAT 5A              
1 47306U 21001A   26256.82421013  .00000144  00000+0  00000+0 0  9993
2 47306   0.0116 114.9674 0000254 292.2834 273.2094  1.00272094 20850
TIANTONG-1 3            
1 47321U 21003A   26257.09212350 -.00000163  00000+0  00000+0 0  9996
2 47321   1.7028 344.9937 0003298 203.0633 279.6816  1.00270046 20859
TJS-6                   
1 47613U 21010A   26257.18277721  .00000034  00000+0  00000+0 0  9997
2 47613   0.0332 233.4088 0003518 310.7855  53.2650  1.00270399 20706
SBIRS GEO-5 (USA 315)   
1 48618U 21042A   26257.09481016 -.00000278  00000+0  00000+0 0  9993
2 48618   4.9987 329.8195 0001738 205.5801 305.6004  1.00271866 19664
FENGYUN 4B              
1 48808U 21047A   26257.05669690 -.00000338  00000+0  00000+0 0  9998
2 48808   0.3718  80.9952 0007698 276.0217 121.0315  1.00266202 19469
SXM-8                   
1 48838U 21049A   26257.19211617 -.00000215  00000+0  00000+0 0  9994
2 48838   0.0316  64.3327 0005852 331.7209 301.1367  1.00275364 19473
TIANLIAN 1-05           
1 49011U 21063A   26257.15079708  .00000100  00000+0  00000+0 0  9995
2 49011   1.8171  79.7956 0003367 138.2865 206.1518  1.00272692 18966
STAR ONE D2             
1 49055U 21069A   26255.49423575 -.00000279  00000+0  00000+0 0  9997
2 49055   0.0207 128.6616 0002520  45.0502 285.7298  1.00272158 18825
EUTELSAT QUANTUM        
1 49056U 21069B   26256.72924785  .00000116  00000+0  00000+0 0  9993
2 49056   0.0233  70.8611 0002235 103.1569 128.9311  1.00273006 18816
ZHONGXING-2E            
1 49062U 21071A   26257.09559019 -.00000301  00000+0  00000+0 0  9995
2 49062   0.0217  87.1863 0000249 149.4969 248.8646  1.00274268 18932
TJS-7                   
1 49115U 21077A   26257.18842808 -.00000133  00000+0  00000+0 0  9994
2 49115   0.1334 261.1427 0001813 101.7476 318.6010  1.00273473 10440
CHINASAT 9B             
1 49125U 21080A   26257.09628352 -.00000322  00000+0  00000+0 0  9995
2 49125   0.0502 255.7163 0003321 284.9612 308.4750  1.00273443 18549
SHIJIAN-21 (SJ-21)      
1 49330U 21094A   26256.99630985 -.00000356  00000+0  00000+0 0  9998
2 49330   5.3191  60.5796 0053538 171.4484 247.5384  1.00266585  6255
SES-17                  
1 49332U 21095A   26255.56608519 -.00000286  00000+0  00000+0 0  9993
2 49332   0.0322  54.4879 0001007 110.7253 323.0498  1.00270580 18735
SYRACUSE 4A             
1 49333U 21095B   26256.44358528  .00000000  00000+0  00000+0 0  9997
2 49333   0.0199 172.1576 0001570 348.6583  36.8117  1.00271100 18830
QZS-1R (MICHIBIKI-1R)   
1 49336U 21096A   26256.38832345 -.00000269  00000+0  00000+0 0  9996
2 49336  37.6434  78.2775 0743659 269.8965 278.0964  1.00288062 17897
ZHONGXING-1D            
1 49505U 21114A   26256.95959758 -.00000346  00000+0  00000+0 0  9992
2 49505   0.0623 303.4607 0001283 320.8743 204.2578  1.00271443 17716
STPSAT-6                
1 49817U 21118A   26257.18520600 -.00000053  00000+0  00000+0 0  9993
2 49817   0.5450  84.2557 0000959 212.2738  11.3926  1.00271860 17469
EXPRESS AMU-7           
1 50001U 21123A   26257.17610387 -.00000251  00000+0  00000+0 0  9997
2 50001   0.0305 257.8220 0000053 121.0343 182.7112  1.00271892 17431
EXPRESS AMU-3           
1 50002U 21123B   26256.73412417 -.00000331  00000+0  00000+0 0  9992
2 50002   0.0366 255.2893 0000596  12.2053  92.5019  1.00267266  7914
TIANLIAN 2-02           
1 50005U 21124A   26257.11006358 -.00000023  00000+0  00000+0 0  9990
2 50005   1.0253  84.5931 0003424 151.9565 327.1266  1.00272154 17511
TURKSAT 5B              
1 50212U 21126A   26257.15582376  .00000137  00000+0  00000+0 0  9990
2 50212   0.0737 335.2499 0001788 330.0557 145.9065  1.00272495 17199
INMARSAT 6-F1           
1 50319U 21128A   26255.52465413 -.00000186  00000+0  00000+0 0  9996
2 50319   0.0204 136.2267 0000163 359.7144 128.2021  1.00273361 17137
SHIYAN-12 01 (SY-12 01) 
1 50321U 21129A   26256.72786117  .00000126  00000+0  00000+0 0  9993
2 50321   3.8970  78.6596 0001632 173.8354  42.8143  1.00476053 17381
SHIYAN-12 02 (SY-12 02) 
1 50322U 21129B   26256.76587484 -.00000159  00000+0  00000+0 0  9991
2 50322   3.8954  78.6521 0004000  95.3086 246.2246  1.00442255 17385
TJS-9                   
1 50574U 21135A   26256.96080292 -.00000308  00000+0  00000+0 0  9990
2 50574   0.0049 150.9023 0004907 191.8922 133.2609  1.00270270 17324
GOES 18                 
1 51850U 22021A   26256.97770301  .00000087  00000+0  00000+0 0  9994
2 51850   0.0488 335.8417 0000481 250.5107 341.6040  1.00274063  7485
ZHONGXING-6D            
1 52255U 22038A   26256.67323882  .00000000  00000+0  00000+0 0  9992
2 52255   0.0399 210.7942 0002005  16.9206 132.2682  1.00267730 16308
NILESAT 301             
1 52817U 22061A   26257.14611705 -.00000067  00000+0  00000+0 0  9993
2 52817   0.0556   2.5459 0001297 141.6502 254.5306  1.00270514 15623
CMS-02 (GSAT-24)        
1 52903U 22067A   26257.07336449 -.00000174  00000+0  00000+0 0  9995
2 52903   0.0195 234.9216 0001889  30.1062 197.4433  1.00272617 15509
MEASAT 3D               
1 52904U 22067B   26257.09420351 -.00000251  00000+0  00000+0 0  9990
2 52904   0.0336 332.6131 0001346 265.2053 240.6792  1.00272876 15548
SES-22                  
1 52933U 22071A   26257.17825434  .00000095  00000+0  00000+0 0  9992
2 52933   0.0476 273.0025 0000942 251.2579 114.0829  1.00274041  8413
WFOV (USA 332)          
1 52940U 22073A   26257.02850987 -.00000370  00000+0  00000+0 0  9994
2 52940   3.9329  77.3423 0002701 168.4066 236.7937  1.00267988 15267
TIANLIAN 2-03           
1 53100U 22078A   26257.14958375  .00000063  00000+0  00000+0 0  9999
2 53100   0.8924  77.7883 0001527 142.3290 197.4365  1.00272530 15438
SBIRS GEO-6 (USA 336)   
1 53355U 22092A   26257.17497720 -.00000302  00000+0  00000+0 0  9999
2 53355   3.1168 319.0653 0001807 211.5564  24.5206  1.00271674 15125
EUTELSAT KONNECT VHTS   
1 53765U 22110A   26256.29263747  .00000006  00000+0  00000+0 0  9997
2 53765   0.0574 104.0966 0002845  38.6650 317.5825  1.00271128  7726
ZHONGXING-1E            
1 53813U 22112A   26257.16345047 -.00000159  00000+0  00000+0 0  9994
2 53813   0.0561 303.0819 0002591 324.3920 225.9175  1.00273595 14747
SES-20                  
1 53960U 22123A   26255.91535931 -.00000114  00000+0  00000+0 0  9994
2 53960   0.0260  92.2871 0001745  13.0765 112.9809  1.00271084 14414
SES-21                  
1 53961U 22123B   26255.98105293  .00000057  00000+0  00000+0 0  9991
2 53961   0.0338  64.3157 0001027 108.1584  41.6881  1.00271160  8096
GALAXY 33 (G-33)        
1 54026U 22128A   26256.69345435  .00000069  00000+0  00000+0 0  9995
2 54026   0.0178  92.5807 0001804  79.3855 297.3647  1.00272752 14634
GALAXY 34 (G-34)        
1 54027U 22128B   26255.69634578  .00000045  00000+0  00000+0 0  9998
2 54027   0.0183 141.1153 0001656  33.6864 298.5835  1.00275867 14793
ANGOSAT 2               
1 54033U 22131A   26255.85498613  .00000000  00000+0  00000+0 0  9996
2 54033   0.0233 161.0032 0000734 117.5433  44.1075  1.00272268 14358
EUTELSAT HOTBIRD 13F    
1 54048U 22134A   26255.72443178  .00000074  00000+0  00000+0 0  9998
2 54048   0.0629 293.8249 0001956  69.5524 262.1429  1.00271707 14252
LDPE-2                  
1 54219U 22144A   26257.01975649  .00000044  00000+0  00000+0 0  9993
2 54219   5.8105  62.7884 0000451 324.4177  47.8448  0.98886500 12737
EUTELSAT HOTBIRD 13G    
1 54225U 22146A   26256.79364147  .00000077  00000+0  00000+0 0  9997
2 54225   0.0493 232.8412 0002065 303.7937 114.8536  1.00272467  8356
ZHONGXING-19            
1 54230U 22148A   26257.17983054 -.00000090  00000+0  00000+0 0  9998
2 54230   0.0156 223.6691 0004463 314.8875  42.5134  1.00272510 14271
GALAXY 31 (G-31)        
1 54243U 22153A   26256.12560345  .00000001  00000+0  00000+0 0  9997
2 54243   0.0160 124.8284 0001241  44.7344 106.7806  1.00272531  8018
GALAXY 32 (G-32)        
1 54244U 22153B   26255.56131850 -.00000188  00000+0  00000+0 0  9997
2 54244   0.0213 113.0306 0000260 300.4355  49.1825  1.00272642 14029
EUTELSAT 10B            
1 54259U 22157A   26256.57922715  .00000057  00000+0  00000+0 0  9991
2 54259   0.0590 101.3789 0001644   0.5645 109.1413  1.00268784 13914
GALAXY 35 (G-35)        
1 54741U 22170A   26257.19027148 -.00000171  00000+0  00000+0 0  9995
2 54741   0.0124 132.1305 0001929  35.2042 161.2361  1.00272750 13785
GALAXY 36 (G-36)        
1 54742U 22170B   26257.19120183 -.00000194  00000+0  00000+0 0  9994
2 54742   0.0149 173.5808 0002057 310.8669 208.5663  1.00271946 13674
METEOSAT-12 (MTG-I1)    
1 54743U 22170C   26257.14733041 -.00000017  00000+0  00000+0 0  9997
2 54743   0.7804  26.4019 0003809  86.1267 293.1783  1.00271636 13874
SHIJIAN-23 (SJ-23)      
1 55131U 23002A   26256.70253162 -.00000090  00000+0  00000+0 0  9997
2 55131   3.9392  77.1499 0002965 230.4773  18.0889  1.00024594 13393
APSTAR-6E               
1 55239U 23005A   26256.96019626 -.00000327  00000+0  00000+0 0  9995
2 55239   0.0483 248.6570 0003732 317.3929 266.5905  1.00272392 19595
USA 342                 
1 55263U 23008A   26254.22981154  .00000120  00000+0  00000+0 0  9996
2 55263   0.0107  67.0110 0000081 236.7004 153.1006  1.00272794 13380
ELEKTRO-L 4             
1 55506U 23016A   26256.56004823 -.00000069  00000+0  00000+0 0  9996
2 55506   0.0506  50.2732 0002203 140.8080 168.9170  1.00270180 13220
AMAZONAS NEXUS          
1 55508U 23017A   26256.80739127 -.00000292  00000+0  00000+0 0  9996
2 55508   0.0455  37.2137 0002784  92.5563  92.6843  1.00270187  7930
ZHONGXING-26            
1 55686U 23023A   26255.96051284 -.00000366  00000+0  00000+0 0  9999
2 55686   0.0580  71.8134 0002275  46.1182 344.9095  1.00269956 13115
LUCH-5X (OLYMP-K 2)     
1 55841U 23031A   26256.73210786  .00000023  00000+0  00000+0 0  9990
2 55841   0.0141 130.1886 0000239 218.1283 329.9669  1.00273511 12824
GAOFEN-13 02            
1 55912U 23036A   26257.17679720 -.00000228  00000+0  00000+0 0  9998
2 55912   1.0056  12.1846 0003757 306.3719 246.4110  1.00268075 12986
SES-18                  
1 55970U 23038A   26256.62810738 -.00000111  00000+0  00000+0 0  9990
2 55970   0.0461 276.9665 0002031 304.8688 253.7956  1.00271938 12992
SES-19                  
1 55971U 23038B   26257.04948330  .00000078  00000+0  00000+0 0  9999
2 55971   0.0522 280.7807 0001759 249.6829  65.5104  1.00274120 12980
INTELSAT 40E (IS-40E)   
1 56174U 23052A   26255.56131850 -.00000188  00000+0  00000+0 0  9990
2 56174   0.0100 149.6044 0002567  30.8003 282.2441  1.00272145 12703
VIASAT-3 F1             
1 56370U 23060A   26255.91813264  .00000000  00000+0  00000+0 0  9994
2 56370   0.0197 184.9308 0000655 345.2921  63.2607  1.00270318 12318
ARCTURUS                
1 56371U 23060B   26256.95733625 -.00000371  00000+0  00000+0 0  9994
2 56371   2.9965  78.7835 0000886 197.2930 181.2740  1.00270811 12350
GS-1                    
1 56372U 23060C   26256.95074955 -.00000201  00000+0  00000+0 0  9991
2 56372   2.9476  78.7026 0002970 268.0654  74.8683  1.00251004  8425
BEIDOU-3 G4             
1 56564U 23066A   26257.17506387 -.00000290  00000+0  00000+0 0  9992
2 56564   0.4403 357.2617 0005242 197.7263   1.2483  1.00270667 12288
ARABSAT-7B (BADR-8)     
1 56757U 23075A   26256.86754917  .00000135  00000+0  00000+0 0  9992
2 56757   0.0791  25.0286 0001694 357.8583 308.2931  1.00271814 12004
NVS-01 (IRNSS-1J)       
1 56759U 23076A   26257.03032990 -.00000347  00000+0  00000+0 0  9991
2 56759   1.9632 240.2308 0005699   0.1859 253.0064  1.00276633 12007
NUSANTARA TIGA (SATRIA) 
1 57045U 23086A   26257.04697439 -.00000244  00000+0  00000+0 0  9993
2 57045   0.0498 355.1407 0002728 295.2448 225.5584  1.00270822 10657
H2SAT (HEINRICH HERTZ)  
1 57213U 23093A   26255.02291408 -.00000013  00000+0  00000+0 0  9994
2 57213   0.0512   1.8490 0000486 152.0156 206.1369  1.00271637 11790
SYRACUSE 4B             
1 57214U 23093B   26255.04273853 -.00000069  00000+0  00000+0 0  9992
2 57214   0.0120 145.0175 0000324 101.4058 113.5724  1.00271681  7832
JUPITER 3 (ECHOSTAR 24) 
1 57479U 23108A   26255.28854709 -.00000165  00000+0  00000+0 0  9990
2 57479   0.0207 123.8814 0001228  44.1236 191.9976  1.00271948 11515
GALAXY 37 (G-37)        
1 57493U 23112A   26257.18104464  .00000000  00000+0  00000+0 0  9995
2 57493   0.0211 163.2841 0002037  15.8759 112.1711  1.00271470 11431
LUDI TANCE-4 01A        
1 57624U 23120A   26256.80880821 -.00000199  00000+0  00000+0 0  9996
2 57624  15.0486 191.7889 0003520  38.3729 143.2416  1.00277134 11430
TJS-10                  
1 58204U 23169A   26256.66684756 -.00000259  00000+0  00000+0 0  9994
2 58204   2.7663  79.3511 0004121 130.1984 115.5464  1.00275537 10428
ZHONGXING-6E            
1 58253U 23172A   26257.04558743 -.00000371  00000+0  00000+0 0  9996
2 58253   0.0217 118.2882 0002425  37.6965 328.9627  1.00269887 10553
YAOGAN-41               
1 58582U 23197A   26257.02928988 -.00000373  00000+0  00000+0 0  9990
2 58582   2.9750 314.6679 0013587 211.3224 320.7231  1.00275061 10212
OVZON-3                 
1 58698U 24003A   26255.44864888  .00000037  00000+0  00000+0 0  9993
2 58698   0.0125 169.9200 0000249 271.1537 131.6008  1.00273789  8323
INSAT-3DS               
1 58990U 24033A   26257.07336449 -.00000165  00000+0  00000+0 0  9992
2 58990   0.0369 251.5282 0001258 284.9367 285.0670  1.00273534 47959
MERAH PUTIH 2           
1 58995U 24035A   26257.02729654 -.00000367  00000+0  00000+0 0  9992
2 58995   0.0172 189.4457 0000900 338.2307 308.1245  1.00272243  9486
TJS-11                  
1 59020U 24037A   26256.74207457 -.00000374  00000+0  00000+0 0  9992
2 59020   4.0894 328.2329 0002592 270.7325 133.3967  1.00267174  9476
HULIANWAN GAOGUI-01 (H*)
1 59069U 24040A   26256.58390718  .00000145  00000+0  00000+0 0  9999
2 59069   0.0904 337.8850 0001629  39.3607 219.2002  1.00275736  8212
EUTELSAT 36D            
1 59346U 24059A   26256.51309227  .00000145  00000+0  00000+0 0  9995
2 59346   0.0170 161.8464 0000095 202.9096 208.3353  1.00271342  9035
PAKSAT-MM1              
1 59915U 24104A   26256.22841718  .00000142  00000+0  00000+0 0  9999
2 59915   0.0380 225.6778 0001868 304.0743 302.8677  1.00271728  8417
ASTRA 1P (SES-24)       
1 60086U 24115A   26256.08209660  .00000108  00000+0  00000+0 0  9992
2 60086   0.0618 338.2104 0002029 251.9403 170.6872  1.00272078  8078
GOES 19                 
1 60133U 24119A   26257.13683690 -.00000257  00000+0  00000+0 0  9991
2 60133   0.0404 358.4596 0000468 257.8888  70.8348  1.00270943  7853
ZHONGXING-3A            
1 60179U 24122A   26257.09628352 -.00000322  00000+0  00000+0 0  9997
2 60179   0.0133 283.7837 0002831 281.8297 283.6601  1.00267790  8209
TURKSAT 6A              
1 60233U 24127A   26257.15573711  .00000137  00000+0  00000+0 0  9991
2 60233   0.0242 206.4318 0004200 350.8592 253.8771  1.00272299  7907
HULIANWAN GAOGUI-02 (H*)
1 60327U 24135A   26256.96374961 -.00000183  00000+0  00000+0 0  9990
2 60327   0.0631 343.9047 0004685  11.0350 138.0545  1.00269739  8385
ZHONGXING-4A            
1 60606U 24151A   26257.06364280 -.00000373  00000+0  00000+0 0  9994
2 60606   1.0910 270.0113 0000767  28.4570 195.7198  1.00274051  7648
HULIANWAN GAOGUI-03 (H*)
1 61503U 24181A   26257.14240657 -.00000250  00000+0  00000+0 0  9998
2 61503   0.0698 349.4384 0001007  97.4766 240.3428  1.00269755  7715
DSN-3 (KIRAMEKI-3)      
1 61733U 24198A   26257.17593052 -.00000259  00000+0  00000+0 0  9993
2 61733   0.0184 197.3711 0001351 315.5312  47.6551  1.00273139  6813
KOREASAT 6A             
1 61910U 24206A   26257.02772987 -.00000371  00000+0  00000+0 0  9995
2 61910   0.0098 164.1494 0000891 345.5267 329.3466  1.00273049  6730
OPTUS-X (ADS-01)        
1 62006U 24212A   26257.04141946 -.00000152  00000+0  00000+0 0  9993
2 62006   0.0462 270.8721 0002560 261.5470 351.9272  1.00272281  6652
GSAT-N2 (GSAT-20)       
1 62028U 24214A   26257.16085045 -.00000029  00000+0  00000+0 0  9992
2 62028   0.0157 164.4371 0001477 208.3456 106.2528  1.00274228  6798
SXM-9                   
1 62259U 24234A   26255.41987541 -.00000220  00000+0  00000+0 0  9991
2 62259   0.0083 202.5051 0004447 114.9852  99.9338  1.00273443  6440
TJS-12                  
1 62374U 24246A   26257.17645053 -.00000241  00000+0  00000+0 0  9999
2 62374   0.4954 311.5897 0001251 138.1784 113.4219  1.00269182  6456
NUVIEW ALPHA            
1 62455U 24252B   26257.19258433 -.00000224  00000+0  00000+0 0  9991
2 62455   0.0518   6.6319 0000152 130.7439 202.0288  1.00272143  4712
AGILA                   
1 62456U 24252C   26257.04655772 -.00000191  00000+0  00000+0 0  9996
2 62456   0.0173 179.8574 0001018 351.4312 350.6473  1.00270187  6051
NUVIEW BRAVO            
1 62457U 24252D   26257.19250522 -.00000224  00000+0  00000+0 0  9994
2 62457   0.0619 163.6116 0001675  15.2367 160.5292  1.00272217  4684
THURAYA-4               
1 62483U 25001A   26257.15625711  .00000130  00000+0  00000+0 0  9993
2 62483   0.0213 102.8885 0000115 321.5244  29.2745  1.00273370  5064
SHIJIAN-25 (SJ-25)      
1 62485U 25002A   26256.59036630 -.00000357  00000+0  00000+0 0  9991
2 62485   5.3197  60.5624 0046755 179.5506  92.3534  1.00280258  6249
TJS-14                  
1 62804U 25017A   26257.15114375  .00000107  00000+0  00000+0 0  9990
2 62804   0.5958 304.4647 0003234 316.1125 165.4157  1.00276158  6160
SPAINSAT NG I           
1 62852U 25021A   26257.15322375  .00000000  00000+0  00000+0 0  9991
2 62852   0.0169 158.4216 0000349 305.6090 333.2476  1.00271662  4879
QZS-6 (MICHIBIKI-6)     
1 62876U 25023A   26257.09411683 -.00000242  00000+0  00000+0 0  9992
2 62876   0.0455  73.6389 0001613 111.0875 292.7152  1.00269793  5847
ZHONGXING-10R           
1 63075U 25036A   26257.05113940 -.00000361  00000+0  00000+0 0  9991
2 63075   0.0222 204.1494 0004677 328.4203 309.3964  1.00270374  5855
TJS-15                  
1 63157U 25045A   26256.70253162 -.00000228  00000+0  00000+0 0  9996
2 63157   0.4315  84.8306 0000172 272.2686 337.2340  1.00272898  5643
TIANLIAN 2-04           
1 63361U 25062A   26257.16327714 -.00000147  00000+0  00000+0 0  9998
2 63361   4.1523 273.2065 0032810   8.1088 210.6339  1.00270699  5496
TJS-16                  
1 63397U 25064A   26256.77142977 -.00000114  00000+0  00000+0 0  9995
2 63397   1.3206  80.7027 0001718 251.3866  99.0490  1.00273191  5273
TJS-17                  
1 63524U 25073A   26256.74211248 -.00000079  00000+0  00000+0 0  9992
2 63524   1.2867  81.7514 0001145 174.7946 167.8599  1.00271399  5171
TIANLIAN 2-05           
1 63662U 25084A   26256.72387449  .00000111  00000+0  00000+0 0  9998
2 63662   4.2332 278.8762 0001075 206.1085 148.7087  1.00274370  5266
TJS-19                  
1 63924U 25097A   26256.77283766 -.00000288  00000+0  00000+0 0  9991
2 63924   3.1462 319.0017 0006065 263.0939 190.0646  1.00271581  5031
CHINASAT 3B             
1 64062U 25106A   26255.11346758  .00000000  00000+0  00000+0 0  9995
2 64062   0.0137 150.1075 0002121  30.9954  18.1798  1.00271858  4938
SXM-10                  
1 64290U 25122A   26257.18767852 -.00000026  00000+0  00000+0 0  9996
2 64290   0.0184  90.5305 0001349 273.8259 300.2209  1.00273492  4571
COSMOS 2589             
1 64467U 25131A   26256.77614206 -.00000373  00000+0  00000+0 0  9995
2 64467   0.1584  91.0001 0000910 286.8978  11.4744  1.00357848  4445
CHINASAT 9C             
1 64470U 25132A   26257.09446351 -.00000257  00000+0  00000+0 0  9991
2 64470   0.0095 166.8384 0002949   0.2068 312.2506  1.00273002  5046
MTG-S1                  
1 64723U 25143A   26257.14741706 -.00000016  00000+0  00000+0 0  9995
2 64723   0.6230 340.4345 0003541 255.0231 170.4793  1.00271321  4315
DROR 1                  
1 64784U 25148A   26257.14663705 -.00000043  00000+0  00000+0 0  9999
2 64784   0.0114 225.4904 0000347 343.2856 193.1024  1.00272126  4182
SHIYAN-29               
1 65486U 25196A   26256.84832145 -.00000277  00000+0  00000+0 0  9993
2 65486  28.9157  17.4204 0015373 176.6932 198.6214  1.00288147  3773
NUSANTARA LIMA (NUSANT*)
1 65588U 25205A   26256.59959390  .00000000  00000+0  00000+0 0  9994
2 65588   0.0101 137.2605 0000386 108.5043  75.5216  1.00269503  3609
TJS-20                  
1 66142U 25238A   26257.15981045  .00000013  00000+0  00000+0 0  9996
2 66142   5.2776 299.2436 0003123 233.5326 300.3094  1.00269259  3226
CMS-03 (GSAT-7R)        
1 66311U 25249B   26256.93191654 -.00000086  00000+0  00000+0 0  9991
2 66311   0.0549 267.7206 0000756 220.6422 274.0125  1.00272301  3238
VIASAT-3 F2             
1 66454U 25261A   26255.13608766 -.00000249  00000+0  00000+0 0  9992
2 66454   0.0306  26.7440 0001112 237.9531  56.4263  1.00271861  3661
SHIJIAN-28 (SJ-28)      
1 66549U 25277A   26257.02891706 -.00000374  00000+0  00000+0 0  9991
2 66549   4.3151 270.7579 0001295  73.4437 136.0447  1.00271308  3042
TJS-22                  
1 66990U 25290A   26257.16059045 -.00000017  00000+0  00000+0 0  9997
2 66990   1.3189 288.2207 0004101 324.3456 224.8486  1.00271806  2917
TJS-23                  
1 67226U 25306A   26256.35836469  .00000002  00000+0  00000+0 0  9994
2 67226   5.3939 297.0639 0004610 250.3588 109.4362  1.00273924  2771
FENGYUN 4C              
1 67246U 25312A   26255.65180904 -.00000336  00000+0  00000+0 0  9992
2 67246   0.0179 339.7644 0000464 303.7998  75.7521  1.00272648  2743
SHIJIAN-29A (SJ-29A)    
1 67302U 25315A   26256.94814954 -.00000079  00000+0  00000+0 0  9994
2 67302   3.6174  92.9567 0006041  75.5918 239.2075  1.00273934  2509
SHIJIAN-29B (SJ-29B)    
1 67403U 25315C   26256.94823620 -.00000080  00000+0  00000+0 0  9998
2 67403   3.6164  92.9500 0006794  87.2043 227.6679  1.00273912  2575
ELEKTRO-L 5             
1 67756U 26028A   26256.80886220 -.00000107  00000+0  00000+0 0  9991
2 67756   0.1831   8.8885 0002383 158.2688 192.8525  1.00270849  2136
JAM-E JAM 1             
1 67757U 26028B   26256.94034949  .00000146  00000+0  00000+0 0  9992
2 67757   0.1511 359.1491 0000448  58.9875 307.2570  1.00268368  2002
ECHOSTAR 25             
1 68126U 26045A   26255.98521294  .00000000  00000+0  00000+0 0  9998
2 68126   0.0236 152.4531 0001477   3.3902  80.8230  1.00269241  1875
TJS-24                  
1 69235U 26116A   26257.20135773 -.00000240  00000+0  00000+0 0  9996
2 69235   0.2328  88.8644 0001333 162.1828 264.9265  1.00269637  1120
