SAR-LUPE 2              
1 31797U 07030A   26275.58144228  .00045755  00000+0  47732-3 0  9994
2 31797  98.1114  34.6827 0003157 159.6829 200.4554 15.64394877 73654
SAPPHIRE                
1 39088U 13009C   26275.59160357  .00000029  00000+0  25288-4 0  9998
2 39088  98.4315  92.5444 0010098 291.6662  68.3448 14.35263294711986
PRAETORIAN SDA_602      
1 65565U 25203A   26275.24155770  .00000045  00000+0  29605-4 0  9996
2 65565  81.2990 271.6711 0004871 265.4678  94.5922 13.83894182 53502
PRAETORIAN SDA_603      
1 65566U 25203B   26275.26565244  .00000146  00000+0  12063-3 0  9991
2 65566  81.2995 271.5660 0008543 261.0727  98.9463 13.83967832 53519
PRAETORIAN SDA_604      
1 65567U 25203C   26275.13819700  .00000042  00000+0  27983-4 0  9990
2 65567  81.3012 272.2661 0004412 271.8101  88.2549 13.83057743 53468
PRAETORIAN SDA_605      
1 65568U 25203D   26275.09094110  .00000044  00000+0  29245-4 0  9991
2 65568  81.2975 271.9061 0007143 262.1543  97.8802 13.83135210 53478
PRAETORIAN SDA_606      
1 65569U 25203E   26275.07439377  .00000047  00000+0  31735-4 0  9998
2 65569  81.3012 272.1861 0004946 264.1332  95.9260 13.83212542 53469
PRAETORIAN SDA_607      
1 65570U 25203F   26275.25001883  .00000151  00000+0  12610-3 0  9993
2 65570  81.2996 271.5612 0007760 260.8810  99.1468 13.83765178 53519
PRAETORIAN SDA_608      
1 65571U 25203G   26274.50603793  .00000038  00000+0  24095-4 0  9994
2 65571  81.2965 272.3808 0004894 271.8475  88.2121 13.83825896 53391
PRAETORIAN SDA_609      
1 65572U 25203H   26275.13141739  .00000148  00000+0  12227-3 0  9997
2 65572  81.3008 271.7670 0005681 261.4101  98.6412 13.84217871 53495
PRAETORIAN SDA_610      
1 65573U 25203J   26275.22755630  .00000049  00000+0  33794-4 0  9992
2 65573  81.2968 271.7135 0005605 268.4996  91.5518 13.83535244 53496
PRAETORIAN SDA_611      
1 65574U 25203K   26275.24898369  .00000179  00000+0  15186-3 0  9990
2 65574  81.2974 271.9002 0004517 275.2611  84.8029 13.83315380 53488
PRAETORIAN SDA_612      
1 65575U 25203L   26275.10506480  .00000133  00000+0  10709-3 0  9992
2 65575  81.2982 271.3569 0007974 258.8764 101.1497 13.85042325 53510
PRAETORIAN SDA_613      
1 65576U 25203M   26275.22534220  .00000044  00000+0  29943-4 0  9991
2 65576  81.2958 272.0029 0004560 262.4422  97.6216 13.82773705 53476
PRAETORIAN SDA_614      
1 65577U 25203N   26275.25878022  .00000047  00000+0  31492-4 0  9991
2 65577  81.2972 271.3192 0006017 258.6761 101.3720 13.84785566 53538
PRAETORIAN SDA_615      
1 65578U 25203P   26275.26204776  .00000107  00000+0  84676-4 0  9991
2 65578  81.2981 271.3477 0007936 259.3379 100.6884 13.84443619 53521
PRAETORIAN SDA_616      
1 65579U 25203Q   26275.25130592  .00000119  00000+0  97680-4 0  9997
2 65579  81.3022 272.1152 0004408 272.5199  87.5453 13.83276844 53489
PRAETORIAN SDA_617      
1 65580U 25203R   26275.20969755  .00000043  00000+0  28168-4 0  9996
2 65580  81.2995 271.9749 0006290 260.0425 100.0021 13.83157981 53485
PRAETORIAN SDA_618      
1 65581U 25203S   26275.24154348  .00000081  00000+0  62412-4 0  9997
2 65581  81.2980 271.3231 0008660 263.4621  96.5550 13.84230769 53526
PRAETORIAN SDA_619      
1 65582U 25203T   26275.24377240  .00000108  00000+0  86961-4 0  9991
2 65582  81.3003 271.7278 0007090 259.7228 100.3129 13.83732140 54139
PRAETORIAN SDA_620      
1 65583U 25203U   26275.23751477  .00000142  00000+0  11900-3 0  9997
2 65583  81.2988 271.8211 0006331 257.2561 102.7887 13.83213805 53496
PRAETORIAN SDA_621      
1 65584U 25203V   26275.24248657  .00000047  00000+0  31402-4 0  9994
2 65584  81.2979 271.6343 0006280 253.1393 106.9075 13.83810594 53507
PRAETORIAN SDA_601      
1 65585U 25203W   26275.26216651  .00000278  00000+0  24274-3 0  9990
2 65585  81.3003 272.0352 0004431 276.7518  83.3134 13.83176482 53480
VICTUS HAZE PUMA        
1 69646U 26142A   26275.57240967  .00002426  00000+0  11063-3 0  9995
2 69646  97.4499 171.9656 0019674  87.6817 272.6672 15.21441058 15991
