SCD 1                   
1 22490U 93009B   26275.35135322  .00000327  00000+0  38263-4 0  9991
2 22490  24.9696 265.8831 0041845 191.8993 307.6759 14.46153750776643
TECHSAT 1B (GO-32)      
1 25397U 98043D   26275.25451913  .00000009  00000+0  23982-4 0  9998
2 25397  99.0167 270.7631 0000233 274.1678  85.9473 14.24445123466573
SCD 2                   
1 25504U 98060A   26274.98224164  .00000308  00000+0  35166-4 0  9991
2 25504  24.9942 133.5371 0016781 171.1794 327.3021 14.45557888475799
DLR-TUBSAT              
1 25757U 99029B   26275.00374947  .00000019  00000+0  16576-4 0  9999
2 25757  98.6778 274.0679 0014737  29.7500 330.4530 14.52447928448755
TERRA                   
1 25994U 99068A   26275.54857847  .00000141  00000+0  37513-4 0  9999
2 25994  97.9339 320.7775 0001094 223.8461 283.0780 14.61168570425280
MAROC-TUBSAT            
1 27004U 01056D   26275.05492080 -.00000035  00000+0  12953-4 0  9997
2 27004  99.8136  93.9748 0019227 228.0288 245.8649 13.70266034240828
AQUA                    
1 27424U 02022A   26275.56133536  .00000397  00000+0  88581-4 0  9991
2 27424  98.4424 247.0655 0001157  62.2769   4.5547 14.62219975298962
SHIYAN-1 (SY-1)         
1 28220U 04012A   26275.22048254  .00008586  00000+0  24541-3 0  9995
2 28220  97.8622   0.4081 0005093  12.5945 347.5424 15.36255541227519
AURA                    
1 28376U 04026A   26275.54956597  .00000417  00000+0  93994-4 0  9999
2 28376  98.3551 232.9647 0001184  67.3135 292.8191 14.61458974181899
IRS-P5 (CARTOSAT-1)     
1 28649U 05017A   26275.04084184  .00000492  00000+0  54744-4 0  9995
2 28649  97.5278 293.2581 0002583  80.8883 279.2629 14.91267399159746
SINAH 1                 
1 28893U 05043D   26275.54946418  .00000150  00000+0  37940-4 0  9997
2 28893  98.3017  50.5995 0013317 302.8257  57.1662 14.64217036116239
RESURS-DK 1             
1 29228U 06021A   26274.84551776  .00001114  00000+0  68044-4 0  9998
2 29228  69.9319  63.3775 0003802 198.5747 161.5282 15.13561825118717
ARIRANG-2 (KOMPSAT-2)   
1 29268U 06031A   26275.61833605 -.00000033  00000+0  23100-5 0  9998
2 29268  97.8340  94.9052 0015828  91.9782 342.6033 14.64711198 77208
LAPAN-TUBSAT            
1 29709U 07001A   26275.72231817  .00000038  00000+0  10967-4 0  9995
2 29709  98.1416 277.4160 0011635 189.2729 170.8272 14.86038649 67121
HAIYANG-1B              
1 31113U 07010A   26275.19160745  .00000037  00000+0  29980-4 0  9993
2 31113  98.3636 252.9540 0012318 242.6010 117.3921 14.31048472 15940
COSMO-SKYMED 1          
1 31598U 07023A   26275.72738256  .00000972  00000+0  88540-4 0  9996
2 31598  97.8812 108.5208 0000930  80.6480 279.4847 14.97496472 45884
TERRASAR-X              
1 31698U 07026A   26275.29358561 -.00000080  00000+0 -63313-6 0  9994
2 31698  97.4473 281.4838 0001821  88.3281 271.8162 15.19152115 69484
WORLDVIEW-1 (WV-1)      
1 32060U 07041A   26275.54502208  .00003469  00000+0  14632-3 0  9991
2 32060  97.3833  33.7629 0003994  21.2964 338.8439 15.23962943 59236
YAOGAN-3                
1 32289U 07055A   26275.57438359  .00001572  00000+0  16427-3 0  9994
2 32289  97.8089 304.3803 0001903  85.1039 275.0396 14.91104576 21875
COSMO-SKYMED 2          
1 32376U 07059A   26275.77288537  .00000179  00000+0  29005-4 0  9997
2 32376  97.8911  97.8432 0001377  90.2254 269.9117 14.82146343 17943
RADARSAT-2              
1 32382U 07061A   26275.72301813 -.00000149  00000+0 -41004-4 0  9997
2 32382  98.5826 281.1389 0001225  83.8712 276.2610 14.29981086981324
CARTOSAT-2A             
1 32783U 08021A   26275.52808473  .00000030  00000+0  10744-4 0  9995
2 32783  97.7515 320.5143 0013028 118.5774 241.6751 14.79341837994672
HUANJING 1A (HJ-1A)     
1 33320U 08041A   26275.57042221  .00000459  00000+0  60858-4 0  9997
2 33320  97.6816 257.3384 0019647 141.8947 218.3662 14.84183712974336
HUANJING 1B (HJ-1B)     
1 33321U 08041B   26275.58942021  .00000776  00000+0  99679-4 0  9991
2 33321  97.6646 260.1968 0035708 188.5026 171.5588 14.83481845974334
GEOEYE 1                
1 33331U 08042A   26275.54362607  .00000171  00000+0  41071-4 0  9997
2 33331  98.1242 348.1702 0005836  83.3551 276.8316 14.64699531965868
THEOS                   
1 33396U 08049A   26275.55443118  .00000455  00000+0  23340-3 0  9996
2 33396  98.5448 329.2879 0001242  83.4232 276.7086 14.20146108933205
COSMO-SKYMED 3          
1 33412U 08054A   26275.55843611  .00002030  00000+0  13782-3 0  9993
2 33412  97.8114 135.8724 0014140 262.6225  97.3395 15.07507906973117
YAOGAN-4                
1 33446U 08061A   26274.81969110  .00000558  00000+0  74512-4 0  9991
2 33446  97.9348 207.5673 0015679  83.6904 276.6095 14.83365077961476
GOSAT (IBUKI)           
1 33492U 09002A   26275.59355705  .00000297  00000+0  60856-4 0  9999
2 33492  98.0973  25.3731 0001567  88.2762 271.8622 14.67533561947214
DEIMOS-1                
1 35681U 09041A   26275.55304235  .00000379  00000+0  62907-4 0  9992
2 35681  97.7557  68.2288 0001381 137.5200 222.6117 14.75327671922715
DUBAISAT-1              
1 35682U 09041B   26274.91878716  .00000477  00000+0  77958-4 0  9993
2 35682  98.0205  47.1098 0011688  88.9206 271.3342 14.75271796920839
OCEANSAT-2              
1 35931U 09051A   26275.57110381  .00000225  00000+0  17974-3 0  9993
2 35931  98.2455 251.7540 0014408 295.8135  64.1544 13.99667594894352
WORLDVIEW-2 (WV-2)      
1 35946U 09055A   26275.53408284  .00000039  00000+0  27515-4 0  9997
2 35946  98.4729 347.5027 0003207 258.1894 101.8933 14.37923660891076
SMOS                    
1 36036U 09059A   26275.14439465  .00000149  00000+0  61264-4 0  9995
2 36036  98.4429 100.9287 0001136  76.1659 283.9656 14.39773012888840
YAOGAN-7                
1 36110U 09069A   26275.11874931  .00000213  00000+0  36638-4 0  9996
2 36110  97.9891 160.2313 0025741  56.0420 304.3232 14.78089418905425
TANDEM-X                
1 36605U 10030A   26275.29358470 -.00000077  00000+0 -48272-6 0  9998
2 36605  97.4461 281.4853 0001853  99.0990 261.0454 15.19150561902903
CARTOSAT-2B             
1 36795U 10035A   26275.52981919  .00000547  00000+0  81793-4 0  9992
2 36795  97.9834 325.3256 0010885 197.6712 162.4122 14.78661558875710
YAOGAN-10               
1 36834U 10038A   26275.59351487  .00001276  00000+0  15366-3 0  9999
2 36834  97.8936 298.1386 0001650  88.8013   8.4370 14.85615125873159
COSMO-SKYMED 4          
1 37216U 10060A   26275.58303957 -.00000315  00000+0 -32966-4 0  9998
2 37216  97.8912  97.6583 0001837  79.6805 280.4615 14.82150947860471
RESOURCESAT-2           
1 37387U 11015A   26275.49296578  .00000004  00000+0  22207-4 0  9998
2 37387  98.7536 342.1335 0010341 311.4149  48.6139 14.21612021801427
HAIYANG-2A              
1 37781U 11043A   26275.55990997 -.00000015  00000+0  31896-4 0  9997
2 37781  99.3463 275.5570 0003849  93.2488 266.9100 13.71121493761382
RASAT                   
1 37791U 11044D   26275.59311233  .00000677  00000+0  12558-3 0  9999
2 37791  98.0553   5.3413 0019770 208.7253 263.8351 14.68248469808945
SRMSAT                  
1 37841U 11058D   26274.34394337  .00000352  00000+0  47397-4 0  9998
2 37841  19.9709 136.9090 0011692 291.9870 224.2682 14.11595602772830
PLEIADES 1A             
1 38012U 11076F   26275.57023834  .00000416  00000+0  99317-4 0  9996
2 38012  98.1886 349.1793 0001478 100.6104  36.4236 14.58548721787645
ZIYUAN 1-02C (ZY 1-02C) 
1 38038U 11079A   26275.57427068  .00000384  00000+0  14019-3 0  9993
2 38038  98.3959 340.5822 0006281 357.5760 138.9985 14.38282950774644
ARIRANG-3 (KOMPSAT-3)   
1 38338U 12025B   26275.60259689  .00000220  00000+0  52918-4 0  9994
2 38338  98.1313 231.2795 0006298 128.4160 231.7608 14.62281903767045
EXACTVIEW-1 (ADS-1B)    
1 38709U 12039C   26275.59947559  .00000060  00000+0  45629-4 0  9992
2 38709  98.9896  35.4785 0010261 217.8391 142.2067 14.25009676738001
SPOT 6                  
1 38755U 12047A   26275.55999115  .00000266  00000+0  67002-4 0  9990
2 38755  98.2009 341.5496 0001109  78.3320 281.8004 14.58538572748701
PLEIADES 1B             
1 39019U 12068A   26275.57832046  .00000211  00000+0  55218-4 0  9994
2 39019  98.1857 349.0981 0001547  96.4232 263.7144 14.58571526736501
GOKTURK 2               
1 39030U 12073A   26275.56125875 -.00000072  00000+0 -36150-5 0  9999
2 39030  97.6773 107.6062 0001644  58.6599 301.4772 14.75622479740344
LANDSAT 8               
1 39084U 13008A   26275.49311849  .00000144  00000+0  42002-4 0  9997
2 39084  98.2198 344.2940 0001305  94.3282 265.8066 14.57107156713524
SARAL                   
1 39086U 13009A   26275.57719705  .00000028  00000+0  26231-4 0  9999
2 39086  98.5558 100.8060 0001686   9.2684 350.8531 14.32909990710989
GAOFEN-1                
1 39150U 13018A   26275.74532477  .00000027  00000+0  11187-4 0  9992
2 39150  97.8992 345.5672 0015707 280.8056  79.1386 14.76548868724111
VNREDSAT 1              
1 39160U 13021B   26275.54006816  .00000483  00000+0  99142-4 0  9991
2 39160  97.8959 324.7580 0001238  91.7475 268.3871 14.64756306716005
ARIRANG-5 (KOMPSAT-5)   
1 39227U 13042A   26275.57733833  .00000394  00000+0  32463-4 0  9991
2 39227  97.6217 100.7876 0004717 110.8065 249.3667 15.04514997720007
SKYSAT-A                
1 39418U 13066C   26275.38092268  .00001438  00000+0  83661-4 0  9994
2 39418  97.3698 321.3299 0019765 305.7650  54.1744 15.13465009704697
DUBAISAT-2              
1 39419U 13066D   26275.58534627  .00002093  00000+0  12961-3 0  9999
2 39419  97.4677 263.0286 0011987  31.2364 328.9576 15.10820168702607
GPM-CORE                
1 39574U 14009C   26275.73008609  .00003616  00000+0  81082-4 0  9995
2 39574  64.9703 307.7478 0010789 268.1033  91.8872 15.45202773714422
SENTINEL-1A             
1 39634U 14016A   26275.72932095 -.00000062  00000+0 -32998-5 0  9991
2 39634  98.1599 281.5728 0001473  84.2860 275.8508 14.59808963665706
KAZEOSAT 1              
1 39731U 14024A   26275.56971828  .00000369  00000+0  12546-3 0  9990
2 39731  98.3106 345.2871 0001463  85.6992 274.4365 14.42069015654036
ALOS-2                  
1 39766U 14029A   26275.54013968  .00000319  00000+0  49667-4 0  9993
2 39766  97.9227  11.1664 0001539  92.2519 267.8869 14.79466527667459
KAZEOSAT 2              
1 40010U 14033A   26275.73321969 -.00000373  00000+0 -37322-4 0  9993
2 40010  97.5348 109.6523 0007994 334.5977  25.4845 14.85571044664920
HODOYOSHI-4             
1 40011U 14033B   26275.54300834  .00000653  00000+0  75958-4 0  9997
2 40011  97.5486  95.2320 0022414 312.6047  47.3280 14.88338484664779
DEIMOS-2                
1 40013U 14033D   26275.55653962 -.00000155  00000+0 -94653-5 0  9996
2 40013  97.5637 146.1894 0001605  50.3344 309.8018 14.93956444653755
HODOYOSHI-3             
1 40015U 14033F   26275.15180768  .00000588  00000+0  73448-4 0  9999
2 40015  97.6549  73.9887 0032773   4.7885 355.3638 14.85582753663509
SPOT 7                  
1 40053U 14034A   26275.56951258  .00000487  00000+0  10835-3 0  9995
2 40053  98.0507 335.2323 0001123  87.7585 272.3745 14.61031504652818
SKYSAT-B                
1 40072U 14037D   26274.83274025  .00000742  00000+0  87079-4 0  9997
2 40072  98.3980 239.9665 0004368 300.6243  59.4541 14.88248892661826
WORLDVIEW-3 (WV-3)      
1 40115U 14048A   26275.56630702  .00000349  00000+0  46979-4 0  9993
2 40115  97.8473 348.8706 0001179  27.9843 332.1435 14.85158386657848
GAOFEN-2                
1 40118U 14049A   26275.60455272  .00000669  00000+0  93187-4 0  9997
2 40118  97.9992 339.6496 0006012 241.0456 119.0154 14.81015799655138
YAOGAN-21               
1 40143U 14053A   26275.56622910  .00007064  00000+0  26466-3 0  9991
2 40143  97.1374 311.2253 0009597  74.8590 285.3711 15.27522207671346
YAOGAN-22               
1 40275U 14063A   26275.18933664 -.00000048  00000+0 -37556-5 0  9998
2 40275 100.7889  68.3235 0005939 312.9935  47.0678 13.15533725573886
ASNARO                  
1 40298U 14070A   26275.56028878  .00005948  00000+0  28246-3 0  9991
2 40298  97.3354 348.7281 0005987 143.8943 216.2698 15.19587845660313
YAOGAN-24               
1 40310U 14072A   26275.58815748  .00000121  00000+0  25256-4 0  9997
2 40310  98.1654  53.9216 0013156 282.3501  77.6235 14.76196285639564
CBERS 4                 
1 40336U 14079A   26275.58668192  .00000148  00000+0  66130-4 0  9996
2 40336  98.3407 328.9834 0001957  76.7603 283.3802 14.35516985619365
YAOGAN-26               
1 40362U 14088A   26275.60149184  .00014225  00000+0  24285-3 0  9998
2 40362  97.0723 273.6430 0004096  44.0372 316.1206 15.51411857654337
SMAP                    
1 40376U 15003A   26275.70394741  .00000179  00000+0  43718-4 0  9999
2 40376  98.1317 281.2964 0001439  88.5898 271.5469 14.63380468623341
KOMPSAT-3A              
1 40536U 15014A   26275.58619833  .00016946  00000+0  20426-3 0  9996
2 40536  97.6945 275.3032 0050530 140.4216 220.0746 15.59269268638521
SENTINEL-2A             
1 40697U 15028A   26275.55731633  .00000211  00000+0  97112-4 0  9994
2 40697  98.5648 348.8447 0001057  84.9953 275.1350 14.30819695589086
GAOFEN-8                
1 40701U 15030A   26275.60186072  .00010946  00000+0  20002-3 0  9999
2 40701  97.6829 115.7028 0008617 155.7568 204.4090 15.49544232628068
CARBONITE 1 (CBNT-1)    
1 40718U 15032D   26275.54551896  .00000081  00000+0  15923-4 0  9998
2 40718  97.6574  89.1900 0013309 306.1215  53.8767 14.83856894605262
YAOGAN-27               
1 40878U 15040A   26275.74977380 -.00000146  00000+0 -27233-3 0  9996
2 40878 100.1304 257.5187 0007992 331.5707  28.4970 13.16075043531814
GAOFEN-9 01             
1 40894U 15047A   26275.75063532  .00000396  00000+0  54651-4 0  9997
2 40894  97.6197 306.5238 0028120 144.4958 215.8135 14.83039644596132
YAOGAN-28               
1 41026U 15064A   26275.58821813  .00004506  00000+0  16422-3 0  9999
2 41026  97.3229  51.8582 0010708 162.9032 197.2571 15.28637019607080
YAOGAN-29               
1 41038U 15069A   26275.58435288  .00000782  00000+0  10257-3 0  9996
2 41038  97.9968 304.3562 0002689  61.1618 298.9865 14.83155051586545
KENT RIDGE 1            
1 41167U 15077B   26275.40930787  .00002803  00000+0  82412-4 0  9992
2 41167  14.9788 188.2387 0008243 312.3474  47.6150 15.23675315597479
GAOFEN-4                
1 41194U 15083A   26275.55801115 -.00000342  00000+0  00000+0 0  9992
2 41194   0.6265  83.0042 0003456 143.2649  91.6151  1.00273511 39605
JASON-3                 
1 41240U 16002A   26275.57555045 -.00000040  00000+0  88237-4 0  9994
2 41240  66.0395 260.0588 0008580 267.5633  92.4403 12.87627946501071
SENTINEL-3A             
1 41335U 16011A   26275.51525430  .00000029  00000+0  30097-4 0  9995
2 41335  98.6257 341.3465 0001257 105.2050 254.9270 14.26737886553362
ZIYUAN 3-02 (ZY 3-02)   
1 41556U 16033A   26275.59948139  .00002678  00000+0  12234-3 0  9991
2 41556  97.3744 349.2516 0011468 284.2932  75.7030 15.21385891574312
CARTOSAT-2C             
1 41599U 16040A   26275.55078369  .00002260  00000+0  11039-3 0  9990
2 41599  97.4361 333.9773 0009983 115.8703 244.3562 15.19247157570010
SKYSAT-C1               
1 41601U 16040C   26275.30614275  .00005059  00000+0  13815-3 0  9992
2 41601  96.9499 301.2932 0002816  41.0682 319.0775 15.37828284574329
LAPAN-A3                
1 41603U 16040E   26275.60363817  .00002080  00000+0  66121-4 0  9990
2 41603  97.1583 268.3180 0009961   0.7346 359.3910 15.33685264571277
GAOFEN-3                
1 41727U 16049A   26275.75832637 -.00000111  00000+0 -20568-4 0  9993
2 41727  98.4056 281.9401 0001138 101.5635 258.5683 14.42210141534159
SKYSAT-C4               
1 41771U 16058B   26275.55367865  .00010054  00000+0  17074-3 0  9998
2 41771  96.9164 293.0434 0002211 160.4281 199.7058 15.51646886562103
SKYSAT-C5               
1 41772U 16058C   26275.33184793  .00003888  00000+0  11906-3 0  9997
2 41772  97.0373 311.0788 0000787 175.3972 184.7279 15.34370362560177
SKYSAT-C2               
1 41773U 16058D   26274.99330900  .00006885  00000+0  15193-3 0  9994
2 41773  97.0138 293.2094 0004023  50.7674 309.3932 15.44180870561525
SKYSAT-C3               
1 41774U 16058E   26275.30756770  .00016415  00000+0  22972-3 0  9991
2 41774  96.8930 302.3118 0001407 101.7811 258.3603 15.56874970562753
ALSAT-1B                
1 41785U 16059C   26275.75558684 -.00000124  00000+0 -12137-4 0  9992
2 41785  97.7795 279.9013 0007892 236.6117 123.4336 14.72339680536407
PATHFINDER 1            
1 41787U 16059E   26275.23796102  .00000289  00000+0  58671-4 0  9999
2 41787  97.8245 269.7285 0027324 222.9234 136.9839 14.67769906535417
SCATSAT 1               
1 41790U 16059H   26275.46664438  .00000529  00000+0  76317-4 0  9998
2 41790  98.1078 340.2869 0053116 261.9283  97.5900 14.79727053117458
GOKTURK 1A              
1 41875U 16073A   26275.57167711  .00000118  00000+0  32247-4 0  9990
2 41875  98.1509 168.7344 0001442  71.8710 288.2648 14.62757602524523
RESOURCESAT-2A          
1 41877U 16074A   26275.54461751  .00000519  00000+0  25665-3 0  9991
2 41877  98.7435 348.1208 0003087 117.1429 243.0063 14.21617723509550
CARTOSAT-2D             
1 41948U 17008A   26275.58137324  .00001433  00000+0  71091-4 0  9999
2 41948  97.3983 332.8066 0003866 216.4777 143.6195 15.19297186533887
SENTINEL-2B             
1 42063U 17013A   26275.55016461  .00000262  00000+0  11652-3 0  9994
2 42063  98.5693 348.7822 0001143  85.8037 274.3276 14.30818343499997
CARTOSAT-2E             
1 42767U 17036C   26275.53389461  .00001732  00000+0  85442-4 0  9993
2 42767  97.4152 333.4920 0002347 318.8487  41.2570 15.19237683514447
FORMOSAT-5              
1 42920U 17049A   26275.49742999  .00000035  00000+0  19772-4 0  9990
2 42920  98.2167 348.3743 0012650 111.5206 248.7338 14.50911741482231
SENTINEL-5P             
1 42969U 17064A   26275.55147266  .00000018  00000+0  29531-4 0  9998
2 42969  98.8013 216.9517 0000999  76.5508 283.5780 14.19533770464793
SKYSAT-C11              
1 42987U 17068A   26275.00433613  .00026150  00000+0  28120-3 0  9993
2 42987  97.4480  69.0380 0000172  51.8741 308.2534 15.63730997499902
SKYSAT-C10              
1 42988U 17068B   26275.16674758  .00005692  00000+0  16311-3 0  9995
2 42988  97.4657  53.2919 0001187  91.3443 268.7937 15.36316297498771
SKYSAT-C9               
1 42989U 17068C   26274.93628504  .00008344  00000+0  18540-3 0  9991
2 42989  97.4577  55.0660 0008967 108.9653 251.2567 15.43908993499211
SKYSAT-C8               
1 42990U 17068D   26275.16524697  .00006519  00000+0  17200-3 0  9991
2 42990  97.4672  53.5117 0001349  86.2494 273.8906 15.38829616498750
SKYSAT-C7               
1 42991U 17068E   26274.83740339  .00006532  00000+0  17252-3 0  9990
2 42991  97.4685  54.1752 0006864  86.3598 273.8432 15.38777759498765
SKYSAT-C6               
1 42992U 17068F   26275.18114326  .00005249  00000+0  16170-3 0  9993
2 42992  97.4726  53.9392 0001476 111.4257 248.7143 15.34070471498724
CARTOSAT-2F             
1 43111U 18004A   26275.56799250  .00002294  00000+0  11209-3 0  9990
2 43111  97.4665 334.0796 0000530 191.5908 168.5315 15.19253196483637
GAOFEN-1 02             
1 43259U 18031A   26275.57950872  .00000097  00000+0  21291-4 0  9995
2 43259  98.0408 337.7386 0003524  43.6196 316.5292 14.76448320458547
GAOFEN-1 03             
1 43260U 18031B   26275.55764708  .00000294  00000+0  49625-4 0  9996
2 43260  98.0404 337.5623 0004080  87.4757 272.6920 14.76462996458538
GAOFEN-1 04             
1 43262U 18031D   26275.60114034  .00000466  00000+0  74398-4 0  9991
2 43262  98.0409 337.8106 0002513  79.3915 280.7578 14.76458063458538
SENTINEL-3B             
1 43437U 18039A   26275.41824609  .00000036  00000+0  32862-4 0  9991
2 43437  98.6254 341.4000 0001058  68.0109 292.1184 14.26735848439413
GAOFEN-5 01             
1 43461U 18043A   26274.92741350  .00000179  00000+0  46967-4 0  9998
2 43461  98.4718 248.8340 0002939  99.9864 260.1668 14.60665293447279
GAOFEN-6                
1 43484U 18048A   26275.55780558  .00000900  00000+0  13677-3 0  9994
2 43484  98.0852 338.4009 0010558 178.3514 181.7732 14.76455848449235
GAOFEN-11 01            
1 43585U 18063A   26275.58349072  .00013228  00000+0  17670-3 0  9992
2 43585  97.1166 342.3048 0002042 307.6500  52.4571 15.58182313457052
ICESAT-2                
1 43613U 18070A   26275.54064156  .00001464  00000+0  52955-4 0  9990
2 43613  91.9997 319.9604 0005734  75.5420 284.6465 15.28291292448852
HYSIS                   
1 43719U 18096A   26275.53658407  .00000455  00000+0  69067-4 0  9993
2 43719  97.9729 341.3788 0001687 106.8004 253.3393 14.78673048423289
KAZSTSAT                
1 43783U 18099AB  26275.29988018  .00001349  00000+0  11257-3 0  9994
2 43783  97.4237 302.3494 0014052  53.1885 307.0626 15.00075132427366
SAUDISAT 5A             
1 43831U 18102A   26275.59231075  .00003089  00000+0  11228-3 0  9991
2 43831  97.2943 335.0984 0011005 110.1536 250.0889 15.28958988432083
SAUDISAT 5B             
1 43833U 18102C   26275.59483678  .00002917  00000+0  10549-3 0  9995
2 43833  97.3058 338.3654 0011700 112.2423 248.0060 15.29169992432205
GAOFEN-10R              
1 44622U 19066A   26275.56146674  .00000595  00000+0  79651-4 0  9991
2 44622  98.0629 229.9920 0006444 135.1166 225.0570 14.83192706378299
CARTOSAT-3              
1 44804U 19081A   26275.58087703  .00001675  00000+0  82460-4 0  9991
2 44804  97.4182 335.6453 0012578 134.6301 225.5962 15.19290723379776
GAOFEN-12 01            
1 44819U 19082A   26275.60939551  .00000157  00000+0  27139-4 0  9994
2 44819  97.8155 279.1839 0002297  72.8018 287.3446 14.80527805369987
CSG-1                   
1 44873U 19092A   26275.59571547  .00000141  00000+0  24326-4 0  9998
2 44873  97.8914  97.6757 0001386  86.9983 273.1388 14.82153078367386
NEMO-HD                 
1 46277U 20061F   26275.53875642  .00006372  00000+0  13029-3 0  9992
2 46277  97.1792 336.4791 0001924  70.9763 289.1696 15.46483040338565
SENTINEL-6A             
1 46984U 20086A   26275.12759541 -.00000049  00000+0  53811-4 0  9998
2 46984  66.0391 272.9337 0007914 269.1017  90.9091 12.80929926274029
CAS500-1                
1 47932U 21022A   26275.75213299  .00003160  00000+0  14918-3 0  9997
2 47932  97.3737 168.7289 0003425 269.5604  90.5239 15.20152141307101
GAOFEN-12 02            
1 48079U 21026A   26275.56440324  .00000171  00000+0  29298-4 0  9991
2 48079  98.0007 273.3537 0003503 239.1869 120.8998 14.80364091297644
PLEIADES NEO 3          
1 48268U 21034A   26275.56224078  .00000571  00000+0  79113-4 0  9991
2 48268  97.8946 348.7856 0001332  86.4080 273.7286 14.81674197293556
PLEIADES NEO 4          
1 49070U 21073E   26275.52846197  .00000419  00000+0  59917-4 0  9995
2 49070  97.8948 348.7486 0001367  85.7254 274.4115 14.81674527277268
LANDSAT 9               
1 49260U 21088A   26275.45884068  .00000142  00000+0  41666-4 0  9998
2 49260  98.2178 344.2785 0001429  90.2893 269.8469 14.57105657266625
CSG-2                   
1 51444U 22008A   26275.56192822 -.00000010  00000+0  53542-5 0  9992
2 51444  97.8912  97.6341 0001424  84.3577 275.7799 14.82149470252499
GAOFEN-12 03            
1 52912U 22069A   26275.54331488 -.00000099  00000+0 -63431-5 0  9997
2 52912  97.8094 160.6185 0001903 106.4470 253.6952 14.80169534230491
SWOT                    
1 54754U 22173A   26275.52685365  .00000065  00000+0  46028-4 0  9996
2 54754  77.6081 250.4041 0000241 149.3495 210.7670 14.00172913194177
GAOFEN-12 04            
1 57654U 23123A   26275.57851709  .00000488  00000+0  71519-4 0  9998
2 57654  97.9076 191.9540 0003575 113.6990 246.4598 14.79887833168512
PARS 1                  
1 59065U 24039Q   26275.57653036  .00007421  00000+0  14492-3 0  9996
2 59065  97.4952 260.1181 0011082  86.4846 273.7671 15.47728689145246
RESURS-P 4              
1 59371U 24061A   26275.74567152  .00001843  00000+0  60865-4 0  9991
2 59371  97.2858 221.8634 0002518 117.1927 242.9572 15.32660613140230
LEGION 1                
1 59625U 24081A   26275.54717075  .00001859  00000+0  96657-4 0  9999
2 59625  97.4937 352.2541 0009159   5.2103 354.9224 15.17279048133814
LEGION 2                
1 59626U 24081B   26275.51248443  .00001849  00000+0  96210-4 0  9999
2 59626  97.4937 352.3149 0010426 330.3476  29.7165 15.17261508133817
ALOS-4 (DAICHI-4)       
1 60182U 24123A   26275.62710781  .00000711  00000+0  10209-3 0  9996
2 60182  97.9223  11.2555 0001453  98.8352 261.3024 14.79475710121768
LEGION 3                
1 60452U 24146A   26275.55018635  .00001846  00000+0  10918-3 0  9999
2 60452  45.0021 174.9230 0006632  93.6015 266.5622 15.15605813118316
LEGION 4                
1 60453U 24146B   26275.35136010  .00001859  00000+0  10976-3 0  9994
2 60453  45.0024 267.8476 0008152 195.4401 164.6230 15.15636774117135
SENTINEL-2C             
1 60989U 24157A   26275.44529209  .00000045  00000+0  33881-4 0  9993
2 60989  98.5704 348.6843 0001175  82.1630 277.9686 14.30816859108321
IONOSFERA-M 1           
1 61735U 24199A   26275.58084344  .00000007  00000+0  22658-4 0  9998
2 61735  98.6983 147.5296 0001274 133.5115 226.6169 14.22770639142970
IONOSFERA-M 2           
1 61736U 24199B   26275.54456998  .00000012  00000+0  24884-4 0  9992
2 61736  98.6982 147.4036 0001619  52.6295 307.5031 14.22774022146098
PRSC-EO1                
1 62725U 25012A   26275.59750696  .00003551  00000+0  17988-3 0  9990
2 62725  97.4125 345.8899 0003390 249.7021 110.3849 15.17615711 94484
BIOMASS                 
1 63772U 25090A   26275.08518233  .00000604  00000+0  11504-3 0  9996
2 63772  98.0756 100.8702 0001398  83.9095 276.2269 14.67533853 76366
GOSAT-GW (IBUKI GW)     
1 64694U 25141A   26275.71235123  .00000294  00000+0  60180-4 0  9991
2 64694  98.0620 211.2972 0001444  84.9452 275.1917 14.67553191 67619
IONOSFERA-M 3           
1 64876U 25155A   26275.72881237  .00000025  00000+0  31280-4 0  9993
2 64876  98.6170 234.9915 0000178 296.0388  64.0771 14.21501561 61681
IONOSFERA-M 4           
1 64877U 25155B   26275.55230243  .00000033  00000+0  34892-4 0  9991
2 64877  98.6174 234.7356 0000478  93.4359 266.6874 14.21504175 61658
MICROCARB               
1 64899U 25156A   26275.49034773  .00000243  00000+0  45851-4 0  9999
2 64899  98.0081 351.0612 0016394 282.3054  77.6318 14.72859100 63760
CO3D 3                  
1 64900U 25156B   26275.54459823  .00002252  00000+0  10711-3 0  9993
2 64900  97.4344 352.6944 0001542 107.1456 252.9948 15.20205634 65841
CO3D 4                  
1 64901U 25156C   26275.54474113  .00002221  00000+0  10568-3 0  9999
2 64901  97.4341 352.6945 0000378 352.8507   7.2723 15.20211947 65848
CO3D 2                  
1 64902U 25156D   26275.51140450  .00002554  00000+0  12109-3 0  9993
2 64902  97.4343 352.5606 0001564  85.1276 275.0137 15.20197420 65833
CO3D 1                  
1 64903U 25156E   26275.51155537  .00000690  00000+0  34987-4 0  9994
2 64903  97.4344 352.5606 0001211  97.0628 263.0745 15.20193870 65834
PRSC-S1                 
1 65055U 25164A   26275.63925101  .00002492  00000+0  17443-3 0  9996
2 65055  41.1311  42.2945 0006813 352.9460   7.1257 15.07163733 64645
SENTINEL-6B             
1 66514U 25264A   26275.12794711 -.00000049  00000+0  54124-4 0  9998
2 66514  66.0392 273.0591 0007868 267.9464  92.0650 12.80929784 40864
CAS500-3                
1 66655U 25274F   26275.51514516  .00000620  00000+0  72776-4 0  9998
2 66655  97.7444 201.1088 0002961 228.2445 131.8519 14.88353090 46111
CSG-3                   
1 67304U 26001A   26275.06827413  .00000135  00000+0  23569-4 0  9999
2 67304  97.8914  97.1545 0001398  89.6352 270.5021 14.82149743 40290
PRSC-E03                
1 68835U 26092A   26275.73635194  .00001419  00000+0  99879-4 0  9999
2 68835  38.0005 175.2514 0003633 173.1804 186.9008 15.07116458 24187
CAS500-2                
1 69013U 26100AK  26275.42826839  .00003208  00000+0  15024-3 0  9999
2 69013  97.3735 171.0649 0009694  12.2411 347.9058 15.20390768 23105
