HST                     
1 20580U 90037B   26270.92146237  .00004611  00000+0  13862-3 0  9999
2 20580  28.4721  97.8607 0001365 203.0060 157.0476 15.31774285804335
POLAR                   
1 23802U 96013A   26268.93925484  .00000117  00000+0  00000+0 0  9999
2 23802  80.0113 225.8418 6566233 205.5949  97.1375  1.29845792146162
SWAS                    
1 25560U 98071A   26271.56271953  .00002139  00000+0  13714-3 0  9992
2 25560  69.8963 320.8212 0002282  99.5812 260.5611 15.10168541512873
CXO                     
1 25867U 99040B   26272.51052193  .00000961  00000+0  00000+0 0  9999
2 25867  57.6281 113.9080 7682309 309.2508   0.2512  0.37809408 17718
XMM-NEWTON              
1 25989U 99066A   26269.07810877  .00000180  00000+0  00000+0 0  9993
2 25989  63.9616 281.6787 4648581  63.1030   0.1095  0.50121727 23515
TERRA                   
1 25994U 99068A   26271.63934896  .00000214  00000+0  52514-4 0  9994
2 25994  97.9345 317.0290 0000911 249.8264 226.0510 14.61167032424711
TIMED                   
1 26998U 01055B   26271.57048180  .00000898  00000+0  84722-4 0  9997
2 26998  74.0692  26.8226 0001464 227.9035 132.2026 14.95479960346275
CORIOLIS                
1 27640U 03001A   26271.56836436  .00000054  00000+0  46106-4 0  9991
2 27640  98.7170 276.8959 0012874 276.0411  83.9298 14.19968805228891
SORCE                   
1 27651U 03004A   26271.39696997  .00001834  00000+0  14043-3 0  9994
2 27651  39.9913  32.6046 0016055  71.1408 289.1126 15.04165751287445
MOST                    
1 27843U 03031D   26271.55302901  .00000031  00000+0  34342-4 0  9997
2 27843  98.7083 277.8545 0009099 319.1982  40.8513 14.21339925205398
SCISAT 1                
1 27858U 03036A   26271.60977873  .00000364  00000+0  51001-4 0  9990
2 27858  73.9309 325.8379 0007416 354.2800   5.8290 14.81548751246763
SWIFT                   
1 28485U 04047A   26268.92987150  .00222984  00000+0  89748-3 0  9992
2 28485  20.5502 120.7640 0004271 343.3974  16.6335 15.84470339202765
HINODE (SOLAR-B)        
1 29479U 06041A   26271.60543349  .00000380  00000+0  73550-4 0  9998
2 29479  98.0544 286.2389 0016545 323.6795  36.3286 14.68732060 70054
SHIJIAN-6 02A (SJ-6 02A)
1 29505U 06046A   26271.61969751  .00004561  00000+0  22822-3 0  9993
2 29505  97.6256 313.4831 0004246 125.2144 234.9488 15.17921115 87956
SHIJIAN-6 02B (SJ-6 02B)
1 29506U 06046B   26271.64409014  .00001041  00000+0  85039-4 0  9998
2 29506  97.6954 299.9691 0015612  84.8284 275.4722 15.01497789 86260
FGRST (GLAST)           
1 33053U 08029A   26272.12659169  .00002237  00000+0  75229-4 0  9993
2 33053  25.5819 202.5172 0008402 112.7989 247.3437 15.24414205 11567
SDO                     
1 36395U 10005A   26271.49110538 -.00000049  00000+0  00000+0 0  9993
2 36395  34.8651  84.7722 0001762  88.2276 269.5156  1.00273865 61096
CRYOSAT 2               
1 36508U 10013A   26272.15087843  .00000125  00000+0  30326-4 0  9997
2 36508  92.0254 302.5356 0002175  88.1418 272.0038 14.51904296873163
X-SAT                   
1 37389U 11015C   26272.19884080 -.00000067  00000+0 -10775-4 0  9993
2 37389  98.3650 244.3336 0014999  41.1964 319.0346 14.25230932802495
GCOM-W1 (SHIZUKU)       
1 38337U 12025A   26271.45886285  .00000304  00000+0  77619-4 0  9998
2 38337  98.2089 210.4731 0001655  81.5588  32.5055 14.57108750764074
NUSTAR                  
1 38358U 12031A   26272.25002315  .00005259  00000+0  26481-3 0  9995
2 38358   6.0269 333.0322 0008211 223.8493 170.9601 15.09649482  1307
NEOSSAT                 
1 39089U 13009D   26272.11091789  .00000108  00000+0  52121-4 0  9990
2 39089  98.4229  89.7158 0009973 300.0136  60.0060 14.35857257711653
BRITE-AUSTRIA           
1 39091U 13009F   26271.98805514  .00000080  00000+0  41969-4 0  9993
2 39091  98.4051  88.9003 0009087 293.1251  66.8977 14.36575336711955
IRIS                    
1 39197U 13033A   26272.13329808  .00000638  00000+0  78992-4 0  9997
2 39197  97.9263 111.0761 0023990 342.0406  17.9959 14.86056329715812
HISAKI (SPRINT-A)       
1 39253U 13049A   26271.53147177  .00000101  00000+0  48674-4 0  9996
2 39253  29.7201  54.5930 0136409 134.7142 226.4627 13.55551875645454
CASSIOPE                
1 39265U 13055A   26272.16487750  .00028413 -73976-6  27754-3 0  9991
2 39265  80.9100 299.7528 0266165  70.1539 292.8173 15.32531552683559
STSAT-3                 
1 39422U 13066G   26272.16955388  .00001942  00000+0  14777-3 0  9994
2 39422  97.6352 240.4722 0011638  50.6409 309.5846 15.03241792699821
SWARM B                 
1 39451U 13067A   26272.14108907  .00001830  00000+0  63540-4 0  9991
2 39451  87.7410 310.7448 0003143  82.8602 277.3005 15.29099851699125
SWARM A                 
1 39452U 13067B   26272.18019959  .00007328  00000+0  12549-3 0  9994
2 39452  87.3375  17.6104 0002799 101.8966 258.2609 15.51019691722365
SWARM C                 
1 39453U 13067C   26272.18009904  .00007395  00000+0  12665-3 0  9997
2 39453  87.3377  16.1940 0002799 101.8910 258.2665 15.51018614722321
BRITE-CA1 (TORONTO)     
1 40020U 14033L   26272.12303021  .00000440  00000+0  73843-4 0  9994
2 40020  97.9880  39.2223 0077239 304.7430  54.6521 14.72827247657510
OCO 2                   
1 40059U 14035A   26272.12078168  .00000241  00000+0  63593-4 0  9999
2 40059  98.2090 211.8584 0001493  71.4829 288.6532 14.57098099651182
BRITE-PL2 (HEWELIUSZ)   
1 40119U 14049B   26271.26319675  .00001682  00000+0  15939-3 0  9996
2 40119  97.9181  24.1250 0015115 124.5771 235.6878 14.94891347656844
MMS 1                   
1 40482U 15011A   26272.25002315 -.00001201  00000+0  00000+0 0  9996
2 40482  72.9550 347.5981 8237633 169.7469 113.6155  0.28356563  1381
MMS 2                   
1 40483U 15011B   26272.25002315 -.00001202  00000+0  00000+0 0  9998
2 40483  72.9583 347.5972 8240445 169.7488 113.5867  0.28356227  1380
MMS 3                   
1 40484U 15011C   26272.25002315 -.00001202  00000+0  00000+0 0  9999
2 40484  72.9588 347.6090 8238849 169.7568 113.5656  0.28356510  1383
MMS 4                   
1 40485U 15011D   26272.25002315 -.00001202  00000+0  00000+0 0  9990
2 40485  72.9520 347.5931 8238964 169.7667 113.5595  0.28356486  1385
ASTROSAT                
1 40930U 15052A   26271.21622649  .00001389  00000+0  87042-4 0  9994
2 40930   5.9960 133.6437 0007386  65.0605 295.0290 14.82660162595147
DAMPE                   
1 41173U 15078A   26272.22649219  .00000588  00000+0  22175-4 0  9992
2 41173  97.4595 278.2453 0013650  69.2246 291.0456 15.31003780600463
PISAT                   
1 41784U 16059B   26271.94603269  .00000525  00000+0  96933-4 0  9997
2 41784  97.8256 267.9893 0027732 232.3602 127.5088 14.69141788534974
HXMT (HUIYAN)           
1 42758U 17034A   26271.57846865  .00002990  00000+0  14920-3 0  9996
2 42758  43.0154 326.9933 0029985  81.2298 279.1945 15.19238014513384
FLYING LAPTOP           
1 42831U 17042G   26272.21900199  .00001375  00000+0  11009-3 0  9991
2 42831  97.5023  64.0592 0018308 124.3140 235.9821 15.01642982502068
ZHANGHENG 1-01 (CSES-1) 
1 43194U 18015C   26272.22838646  .00003965  00000+0  18309-3 0  9990
2 43194  97.6969  80.0204 0012944 275.3472  84.6286 15.20756903480456
SALSAT                  
1 46495U 20068K   26271.97138610  .00004610  00000+0  15629-3 0  9993
2 46495  97.8881 281.4819 0007783 304.1219  55.9281 15.31082450331230
IXPE                    
1 49954U 21121A   26271.66668981  .00008790  00000+0  45556-3 0  9997
2 49954   0.2311 254.6195 0007262 208.8063 314.9955 15.11068645  5802
SMILE                   
1 69123U 26109A   26268.64351150  .00000659  00000+0  00000+0 0  9996
2 69123  69.9900 206.2872 8151277 285.5261   5.6589  0.47507702   424
