DMSP 5D-3 F16 (USA 172) 
1 28054U 03048A   26271.59138777  .00000025  00000+0  36695-4 0  9998
2 28054  98.9849 296.0848 0006547 206.5280 266.7914 14.14492554184108
METEOSAT-9 (MSG-2)      
1 28912U 05049B   26271.55462006  .00000132  00000+0  00000+0 0  9990
2 28912   9.5911  53.1133 0001444  12.4509 187.1733  1.00268642  8039
DMSP 5D-3 F17 (USA 191) 
1 29522U 06050A   26271.54914638  .00000085  00000+0  66347-4 0  9991
2 29522  98.7427 276.0278 0011100 117.8985 242.3314 14.15011141 27044
FENGYUN 3A              
1 32958U 08026A   26272.08032253  .00000046  00000+0  42201-4 0  9997
2 32958  98.6955 210.9961 0008500 181.7425 178.3723 14.19589046950147
EWS-G3 (GOES 14)        
1 35491U 09033A   26272.13018752 -.00000017  00000+0  00000+0 0  9990
2 35491   1.9507  81.5497 0002316 110.9765 295.0391  1.00069944  7639
DMSP 5D-3 F18 (USA 210) 
1 35951U 09057A   26272.16230612  .00000114  00000+0  82156-4 0  9995
2 35951  98.9170 252.7681 0010416 321.2092  38.8332 14.14946298874296
EWS-G2 (GOES 15)        
1 36411U 10008A   26272.12836751  .00000027  00000+0  00000+0 0  9993
2 36411   1.5571  81.7393 0004957  90.6024 305.0959  1.00272199 60685
FENGYUN 3B              
1 37214U 10059A   26272.19165829  .00000153  00000+0  10258-3 0  9999
2 37214  98.9516 318.5934 0021098 251.1140 184.6483 14.14860233822136
SUOMI NPP               
1 37849U 11061A   26271.60197153  .00000045  00000+0  42488-4 0  9998
2 37849  98.8026 211.7982 0002539  49.5741 310.5656 14.19535538773114
METEOSAT-10 (MSG-3)     
1 38552U 12035B   26268.69445431  .00000000  00000+0  00000+0 0  9992
2 38552   4.9040  60.4434 0000997 124.6493  69.5152  1.00273165 51860
METOP-B                 
1 38771U 12049A   26272.15629750  .00000052  00000+0  43397-4 0  9992
2 38771  98.6390 321.5247 0003147  62.3963 297.7533 14.21461676728035
INSAT-3D                
1 39216U 13038B   26272.18864324 -.00000333  00000+0  00000+0 0  9999
2 39216   2.1867  81.0984 0002241 132.5364 351.7756  1.00270842 48123
FENGYUN 3C              
1 39260U 13052A   26272.21597543  .00000030  00000+0  36183-4 0  9993
2 39260  98.5134 241.3806 0015827  84.2974 276.0005 14.15774219673280
METEOR-M 2              
1 40069U 14037A   26272.18115645  .00000290  00000+0  15173-3 0  9994
2 40069  98.5257 244.3033 0006961  92.3900 267.8075 14.21487569634095
HIMAWARI-8              
1 40267U 14060A   26271.32475155 -.00000270  00000+0  00000+0 0  9998
2 40267   0.0397  45.2139 0001169 168.8652  50.6245  1.00270583 43798
FENGYUN 2G              
1 40367U 14090A   26271.99290696 -.00000295  00000+0  00000+0 0  9997
2 40367   5.8935  71.5070 0004208 185.1286 208.2942  1.00267587 43041
METEOSAT-11 (MSG-4)     
1 40732U 15034A   26272.17822500  .00000070  00000+0  00000+0 0  9998
2 40732   3.4569  70.3492 0000491  86.8282 284.3557  1.00277548  8262
ELEKTRO-L 2             
1 41105U 15074A   26272.18427656 -.00000110  00000+0  00000+0 0  9997
2 41105   6.9477  69.2010 0002217 190.9343 159.6667  1.00271663 39542
SENTINEL-3A             
1 41335U 16011A   26272.14902222  .00000052  00000+0  39604-4 0  9998
2 41335  98.6263 338.0288 0001232 105.9991 254.1325 14.26737337552889
INSAT-3DR               
1 41752U 16054A   26272.11433531 -.00000073  00000+0  00000+0 0  9994
2 41752   0.0703  88.6305 0012414 175.5938 218.8497  1.00270970 36869
HIMAWARI-9              
1 41836U 16064A   26271.53099162 -.00000270  00000+0  00000+0 0  9990
2 41836   0.0035 209.1533 0002066  31.3106  98.7852  1.00269973 36244
GOES 16                 
1 41866U 16071A   26272.09508736 -.00000086  00000+0  00000+0 0  9990
2 41866   0.5906  84.0912 0002170 143.0537  70.2808  1.00271210 36147
FENGYUN 4A              
1 41882U 16077A   26272.21149001 -.00000352  00000+0  00000+0 0  9990
2 41882   2.5777  78.9469 0008368 166.5977 321.6851  1.00271577 35972
CYGFM05                 
1 41884U 16078A   26272.17771619  .00019293  00000+0  21999-3 0  9991
2 41884  34.9558 289.6450 0004011  74.2323 285.8845 15.61245255544999
CYGFM04                 
1 41885U 16078B   26272.15878596  .00029639  00000+0  26049-3 0  9998
2 41885  34.9307 251.4480 0003901 155.6736 204.4176 15.67728740545290
CYGFM02                 
1 41886U 16078C   26272.10108604  .00041175  00000+0  29245-3 0  9990
2 41886  34.9387 242.5290 0004872 167.2224 192.8629 15.72766973545499
CYGFM01                 
1 41887U 16078D   26272.17932257  .00020130  00000+0  22186-3 0  9992
2 41887  34.9387 289.7557 0003672  69.4251 290.6869 15.62115234544959
CYGFM08                 
1 41888U 16078E   26272.12508230  .00026813  00000+0  25618-3 0  9995
2 41888  34.9419 266.5274 0004803 117.8398 242.2816 15.65678937545247
CYGFM07                 
1 41890U 16078G   26272.14065616  .00027019  00000+0  25668-3 0  9990
2 41890  34.9430 254.6599 0004178 146.5608 213.5383 15.65823579545276
CYGFM03                 
1 41891U 16078H   26272.11272307  .00026407  00000+0  25119-3 0  9996
2 41891  34.9390 256.7630 0003148 133.3379 226.7610 15.65799364545246
FENGYUN 3D              
1 43010U 17072A   26271.60369005 -.00000249  00000+0 -95818-4 0  9993
2 43010  99.0262 247.9589 0002464  99.6488 260.4966 14.19756673459664
NOAA 20 (JPSS-1)        
1 43013U 17073A   26271.54521505  .00000022  00000+0  31541-4 0  9995
2 43013  98.7837 210.1127 0001010  34.6272 325.4970 14.19527986459139
GOES 17                 
1 43226U 18022A   26272.09812072 -.00000177  00000+0  00000+0 0  9992
2 43226   1.1973  83.9239 0001299 149.7191  80.0761  1.00270492 31468
SENTINEL-3B             
1 43437U 18039A   26272.19226941  .00000052  00000+0  39713-4 0  9998
2 43437  98.6259 338.2207 0001186  69.1451 290.9857 14.26735286438952
FENGYUN 2H              
1 43491U 18050A   26272.06024723 -.00000123  00000+0  00000+0 0  9993
2 43491   3.2900  77.7572 0002916 151.0096 240.0815  1.00270922 30480
METOP-C                 
1 43689U 18087A   26271.60829970  .00000056  00000+0  45642-4 0  9998
2 43689  98.7319 329.4174 0000379  79.7330 280.3890 14.21475107409529
GEO-KOMPSAT-2A          
1 43823U 18100A   26271.92742097 -.00000339  00000+0  00000+0 0  9992
2 43823   0.0465  27.8482 0001464 101.2922 340.7215  1.00271625 28679
METEOR-M2 2             
1 44387U 19038A   26272.20812587  .00000105  00000+0  65225-4 0  9998
2 44387  98.9257 261.0846 0002376  79.3350 280.8095 14.24389369376108
FENGYUN 3E              
1 49008U 21062A   26271.64687318 -.00000025  00000+0  89149-5 0  9996
2 49008  98.7547 273.9283 0002334 123.5881 236.5519 14.19911484271268
GOES 18                 
1 51850U 22021A   26272.08867402  .00000101  00000+0  00000+0 0  9990
2 51850   0.0068 336.1876 0000585 278.5676   8.0481  1.00270919  7634
NOAA 21 (JPSS-2)        
1 54234U 22150A   26271.57632853  .00000030  00000+0  34701-4 0  9996
2 54234  98.7119 208.6464 0000659 255.6812 104.4291 14.19551002201219
METEOSAT-12 (MTG-I1)    
1 54743U 22170C   26271.26036097 -.00000002  00000+0  00000+0 0  9997
2 54743   0.7463  21.2729 0003348  96.8399 342.2559  1.00273766 14018
TIANMU-1 03             
1 55973U 23039A   26271.62814084  .00011082  00000+0  19960-3 0  9996
2 55973  97.5267  89.9000 0003701  86.0969 274.0705 15.49978564196843
TIANMU-1 04             
1 55974U 23039B   26271.57444836  .00011751  00000+0  20638-3 0  9992
2 55974  97.5189  89.0131 0004751  73.4675 286.7098 15.50672201196850
TIANMU-1 05             
1 55975U 23039C   26271.61435733  .00011439  00000+0  20664-3 0  9996
2 55975  97.5243  89.4624 0003633  95.9399 264.2266 15.49884153196827
TIANMU-1 06             
1 55976U 23039D   26271.39174603  .00011040  00000+0  19497-3 0  9998
2 55976  97.5252  89.9736 0003414  92.0459 268.1184 15.50538779196823
FENGYUN 3G              
1 56232U 23055A   26271.62025696  .00017975  00000+0  27642-3 0  9999
2 56232  49.9918 172.6083 0010986  94.6624 265.5599 15.54196540196087
METEOR-M2 3             
1 57166U 23091A   26271.59454067 -.00000012  00000+0  13414-4 0  9998
2 57166  98.5973 324.3987 0003212 215.8419 144.2545 14.24053217169237
TIANMU-1 07             
1 57399U 23101A   26271.60833139  .00003888  00000+0  13303-3 0  9990
2 57399  97.2484 319.9149 0004063 115.3380 244.8283 15.30822669177467
TIANMU-1 08             
1 57400U 23101B   26271.64028035  .00003853  00000+0  13186-3 0  9999
2 57400  97.2474 319.7015 0005503 108.0958 252.0883 15.30820269177460
TIANMU-1 09             
1 57401U 23101C   26271.62273086  .00003937  00000+0  13474-3 0  9999
2 57401  97.2432 319.0448 0004863 119.3267 240.8461 15.30806546177463
TIANMU-1 10             
1 57402U 23101D   26271.65519419  .00003967  00000+0  13548-3 0  9991
2 57402  97.2510 320.2377 0006080 118.9360 241.2492 15.30861125177461
FENGYUN 3F              
1 57490U 23111A   26271.62813458  .00000017  00000+0  28405-4 0  9998
2 57490  98.6740 339.6581 0001404 109.3902 250.7426 14.19952675163543
TIANMU-1 11             
1 58645U 23205A   26271.62559610  .00003389  00000+0  12714-3 0  9992
2 58645  97.3417 291.6112 0008661  10.8069 349.3355 15.27881432153314
TIANMU-1 12             
1 58646U 23205B   26271.61398374  .00003544  00000+0  13417-3 0  9994
2 58646  97.3407 291.2995 0007029 358.3468   1.7747 15.27555401153294
TIANMU-1 13             
1 58647U 23205C   26271.64586216  .00003411  00000+0  12930-3 0  9994
2 58647  97.3433 291.6415 0005177 340.1370  19.9667 15.27546103153299
TIANMU-1 14             
1 58648U 23205D   26271.62877648  .00003382  00000+0  12812-3 0  9991
2 58648  97.3373 290.7255 0006076 344.3006  15.8044 15.27568174153292
TIANMU-1 19             
1 58660U 23208A   26271.59768620  .00005992  00000+0  19061-3 0  9995
2 58660  97.4595  28.5820 0003692 319.4009  40.6958 15.32979194153165
TIANMU-1 20             
1 58661U 23208B   26271.62041063  .00005921  00000+0  18141-3 0  9995
2 58661  97.4541  29.3498 0005775 322.1560  37.9276 15.34174275153277
TIANMU-1 21             
1 58662U 23208C   26271.57428444  .00006869  00000+0  19352-3 0  9999
2 58662  97.4608  32.4584 0005690 313.3517  46.7252 15.36758669153430
TIANMU-1 22             
1 58663U 23208D   26271.61830188  .00005383  00000+0  17491-3 0  9999
2 58663  97.4592  28.4429 0003058 356.0410   4.0807 15.32347144153169
TIANMU-1 15             
1 58700U 24004A   26271.62587035  .00003604  00000+0  13648-3 0  9991
2 58700  97.4661  97.8710 0006601 343.6282  16.4743 15.27558205151561
TIANMU-1 16             
1 58701U 24004B   26271.61096382  .00003759  00000+0  14218-3 0  9996
2 58701  97.4613  97.0320 0005410   0.1977 359.9263 15.27574235151564
TIANMU-1 17             
1 58702U 24004C   26271.66139016  .00003675  00000+0  13869-3 0  9992
2 58702  97.4637  97.6054 0005428   8.7641 351.3692 15.27660371151561
TIANMU-1 18             
1 58703U 24004D   26271.64244399  .00003403  00000+0  12948-3 0  9998
2 58703  97.4653  97.8546 0004914 350.7363   9.3784 15.27446408151563
INSAT-3DS               
1 58990U 24033A   26271.41933281 -.00000151  00000+0  00000+0 0  9998
2 58990   0.0178 174.4153 0001484  25.9610  39.8851  1.00270893 48101
METEOR-M2 4             
1 59051U 24039A   26271.65613566 -.00000014  00000+0  13459-4 0  9995
2 59051  98.7144 229.7111 0006139 225.0130 135.0551 14.22438539133974
GOES 19                 
1 60133U 24119A   26271.53069995 -.00000244  00000+0  00000+0 0  9993
2 60133   0.0456  20.9140 0000660 238.9964 223.2856  1.00272199  8006
MTG-S1                  
1 64723U 25143A   26271.26036097 -.00000001  00000+0  00000+0 0  9998
2 64723   0.6161 343.4017 0004061 255.6786 221.4856  1.00273873  4452
METOP-SGA1              
1 65159U 25172A   26271.57212210  .00000022  00000+0  30431-4 0  9999
2 65159  98.7433 329.4674 0000843  96.7982 263.3291 14.21468247 58472
FENGYUN 3H              
1 65815U 25219A   26271.41446471  .00000025  00000+0  32142-4 0  9995
2 65815  98.6836 210.2008 0001513  92.0509 268.0841 14.19934557 52032
